id,name,name_secondary,freephone,phone,email,website,contact_page,last_modified,address_physical_extended,address_physical_street,address_physical_locality,address_physical_postcode,address_physical_country,address_postal_extended,address_postal_street,address_postal_locality,address_postal_postcode,address_postal_country,sector,parent_id
accident-compensation-corporation,Accident Compensation Corporation (ACC),Te Kaporeihana Āwhina Hunga Whara,0800101996,+6448167400,information@acc.co.nz,http://www.acc.co.nz,https://www.acc.co.nz/contact/,2021-04-09,,19 Aitken Street,Wellington,6140,New Zealand,,PO Box 242,Wellington,6140,New Zealand,Crown agents,
accreditation-council,Accreditation Council,,,+6495256655,info@ianz.govt.nz,https://www.ianz.govt.nz/,https://www.ianz.govt.nz/contact-us,2020-07-29,,626 Great South Road,Auckland,1051,New Zealand,,Private Bag 28908,Auckland,1541,New Zealand,Autonomous crown entities,
advertising-standards-authority,Advertising Standards Authority (ASA),,0800234357,+6444727852,asa@asa.co.nz,http://www.asa.co.nz/,http://www.asa.co.nz/contact-us/,2019-07-31,,93 Boulcott Street,Wellington,6011,New Zealand,,PO Box 10675,Wellington,6143,New Zealand,,
agresearch-limited,AgResearch Limited,,,+6433218800,info@agresearch.co.nz,http://www.agresearch.co.nz/,https://www.agresearch.co.nz/contact/,2023-09-27,,19 Ellesmere Junction Road,Lincoln,7608,New Zealand,,Private Bag 4749,Christchurch,8140,New Zealand,Crown Research Institutes,
agricultural-and-marketing-research-and-development-trust,Agricultural and Marketing Research and Development Trust (AGMARDT),,,+6463238766,info@agmardt.org.nz,http://www.agmardt.org.nz/,http://agmardt.org.nz/?c=email,2021-04-09,,8 Weld Street,Feilding,4702,New Zealand,,PO Box 472,Feilding,4740,New Zealand,Trusts,
air-new-zealand,Air New Zealand,,0800737000,+64093662929,,http://www.airnewzealand.co.nz,https://www.airnewzealand.co.nz/help-and-contact,2021-04-09,,185 Fanshawe Street,Auckland,1010,New Zealand,,Air NZ Customer Relations  Private Bag 92007,Auckland,1142,New Zealand,State-owned enterprises,
airways-corporation-of-new-zealand-limited,Airways,,,+6444711888,info@airways.co.nz,http://www.airways.co.nz/,http://www.airways.co.nz/contact-us/,2020-07-29,,100 Willis Street,Wellington,6011,New Zealand,,PO Box 294,Wellington,6140,New Zealand,State-owned enterprises,
alcohol-regulatory-and-licensing-authority,Alcohol Regulatory and Licensing Authority,,,+6444626660,ARLA@justice.govt.nz,https://www.justice.govt.nz/tribunals/licences-certificates/arla,https://www.justice.govt.nz/tribunals/licences-certificates/arla/contact-us/,2019-10-31,,86 Customhouse Quay,Wellington,6011,New Zealand,,Alcohol Regulatory and Licensing Authority  Tribunals Unit  DX: SX11159,Wellington,,New Zealand,,
alexander-turnbull-library,Alexander Turnbull Library,,0800474300,+6444743000,atl@natlib.govt.nz,http://natlib.govt.nz/researchers,https://natlib.govt.nz/about-this-site/contact-us,2021-02-22,,Corner of Molesworth and Aitken Streets,Wellington,6140,New Zealand,,PO Box 12349,Wellington,6140,New Zealand,Public Service,national-library-of-new-zealand
animal-control-products-limited,Animal Control Products Ltd,,,+6463445302,info@pestoff.co.nz,http://www.pestoff.co.nz/,http://www.pestoff.co.nz/contact-us,2020-08-12,,408 Heads Road,Wanganui,4501,New Zealand,,Private Bag 3018,Wanganui,4540,New Zealand,State-owned enterprises,
ara-institute-of-canterbury,Ara Institute of Canterbury,"Ara rau, taumata rau",0800242476,+6439408000,info@ara.ac.nz,http://www.ara.ac.nz/,https://www.ara.ac.nz/about-us/contact-us,2020-11-09,,130 Madras Street,Christchurch,8011,New Zealand,,PO Box 540,Christchurch,8140,New Zealand,Polytechnics/Institutes of technology,te-pukenga
archives-new-zealand,Archives New Zealand,Te Rua Mahara o te Kāwanatanga,,+6444995595,info@archives.govt.nz,http://archives.govt.nz/,http://www.archives.govt.nz/visit/contact,2021-11-01,,10 Mulgrave Street,Wellington,6011,,,PO Box 12-050,Wellington,,New Zealand,Public Service,department-of-internal-affairs
aroturuki-tamariki,Aroturuki Tamariki,Independent Children’s Monitor,0800777232,,info@aroturuki.govt.nz,https://aroturuki.govt.nz/,https://aroturuki.govt.nz/contacts/,2023-05-17,,50 The Terrace,Wellington,6011,,,PO Box 202,Wellington,6140,,Public Service,
ashburton-district-council,Ashburton District Council,,,+6433077700,info@adc.govt.nz,http://www.ashburtondc.govt.nz/,https://www.ashburtondc.govt.nz/services/contact-us,2021-02-22,,5 Baring Square West,Ashburton,7700,New Zealand,,PO Box 94,Ashburton,7740,New Zealand,District Council,
asia-new-zealand-foundation,Asia New Zealand Foundation,,,+6444712320,asianz@asianz.org.nz,http://asianz.org.nz/,http://www.asianz.org.nz/,2022-07-27,,141 The Terrace,Wellington,6011,New Zealand,,PO Box 10 144,Wellington,6143,New Zealand,Trusts,
asurequality-limited,AsureQuality Limited,,0508001122,+6495738000,,http://www.asurequality.com/,https://www.asurequality.com/contact/,2021-09-20,,7a Pacific Rise,Auckland,1060,New Zealand,,Private Bag 14 946,Auckland,1741,New Zealand,State-owned enterprises,
auckland-council,Auckland Council,Te Kaunihera o Tāmaki Makaurau,,+6493010101,,http://www.aucklandcouncil.govt.nz/,https://www.aucklandcouncil.govt.nz/report-problem/Pages/default.aspx,2021-04-09,,135 Albert Street,Auckland,1010,New Zealand,,Private Bag 92300,Auckland,1142,New Zealand,City Council,
auckland-policy-office,Auckland Policy Office (APO),,,+6499854800,,,,2024-06-07,,167b Victoria Street West,Auckland,1010,New Zealand,,PO Box 106483,Auckland,1143,New Zealand,Public Service,
auckland-university-of-technology,Auckland University of Technology,Te Whare Takiura O Tamaki Makau Rau,0800288864,+6499219999,studentcentre@aut.ac.nz,http://www.aut.ac.nz/,https://www.aut.ac.nz/about/contact-details,2020-07-29,,55 Wellesley Street East,Auckland,,New Zealand,,Private Bag 92006,Auckland,1142,New Zealand,Universities,
aucklandwaikato-fish-and-game-council,Auckland / Waikato Fish and Game Council,,,+6478491666,aucklandwaikato@fishandgame.org.nz,https://fishandgame.org.nz/auckland/,https://fishandgame.org.nz/auckland/about/about-fish-and-game-council/contact/,2020-08-12,,156 Brymer Road,Hamilton,3289,New Zealand,,156 Brymer Road  ,Hamilton,3289,New Zealand,Regional,new-zealand-fish-and-game-council
audit-new-zealand,Audit New Zealand,Mana Arotake Aotearoa,,+6444963099,enquiry@auditnz.parliament.nz,https://auditnz.parliament.nz/,https://auditnz.parliament.nz/who-we-are/our-locations,2020-03-10,,100 Molesworth Street,Wellington,6011,New Zealand,,PO Box 99,Wellington,6140,New Zealand,Offices of Parliament,controller-and-auditor-general
aviation-security-service,Aviation Security Service (Avsec),,+6444952430,,reception@avsec.govt.nz,https://www.aviation.govt.nz/,https://www.aviation.govt.nz/about-us/contact-us/,2019-10-23,,55 Featherston Street,Wellington,6011,New Zealand,,PO Box 3555,Wellington,6140,New Zealand,Crown agents,civil-aviation-authority-of-new-zealand
banking-ombudsman-scheme,Banking Ombudsman Scheme,,0800805950,+6449150400,help@bankomb.org.nz,https://www.bankomb.org.nz/,https://www.bankomb.org.nz/contact-us,2019-07-30,,1 Post Office Square,Wellington,6011,New Zealand,,Freepost 218002  PO Box 25327,Wellington,6140,New Zealand,,
bay-of-plenty-regional-council,Bay of Plenty Regional Council (BOPRC),,0800884880,+6479223390,info@boprc.govt.nz,http://www.boprc.govt.nz/,http://www.boprc.govt.nz/council/contact-us.aspx,2020-06-09,,5 Quay Street,Whakatane,,,,PO Box 364,Whakatane,3158,New Zealand,Regional Council,
benefits-review-committee,Benefits Review Committee,,0800559009,+6449163300,,https://www.msd.govt.nz/about-msd-and-our-work/contact-us/complaints/review-of-decision.html,https://www.workandincome.govt.nz/about-work-and-income/complaints/review-of-decisions.html,2020-06-09,,56 The Terrace,Wellington,6011,,,Ministry of Social Development  PO Box 1556,Wellington,6140,,,ministry-of-social-development
births-deaths-and-marriages,"Births, Deaths and Marriages","Whānautanga, Matenga, Mārenatanga",,,,,,2024-04-08,,,,,,,,,,,,
broadcasting-standards-authority,Broadcasting Standards Authority,Te Mana Whanonga Kaipāho,0800366996,+6443829508,info@bsa.govt.nz,http://www.bsa.govt.nz/,http://www.bsa.govt.nz/contact-us/,2020-07-29,,119 Ghuznee Street,Wellington,,New Zealand,,PO Box 9213,Wellington,6141,New Zealand,Independent Crown entities,
building-practitioners-board,Building Practitioners Board,,0800606050,+6442386312,Licensing@lbp.govt.nz,https://www.lbp.govt.nz/about-us/our-board/,,2021-08-27,,15 Stout Street,Wellington,6011,New Zealand,,PO Box 10-729,Wellington,6143,New Zealand,Statutory entities,ministry-of-business-innovation-and-employment
building-system-performance,Building System Performance,,0800242243,,info@building.govt.nz,https://www.building.govt.nz/,,2020-06-15,,15 Stout Street,Wellington,6011,New Zealand,,PO Box 1473,Wellington,6140,New Zealand,Public Service,ministry-of-business-innovation-and-employment
buller-district-council,Buller District Council,,0800807239,+6437889111,info@bdc.govt.nz,http://bullerdc.govt.nz/,http://www.bullerdc.govt.nz/contact-us/,2020-06-09,,6-8 Brougham Street,Westport,7866,New Zealand,,PO Box 21,Westport,7866,New Zealand,District Council,
callaghan-innovation,Callaghan Innovation,,0800422552,+6449313578,info@callaghaninnovation.govt.nz,http://www.callaghaninnovation.govt.nz/,https://content.callaghaninnovation.govt.nz/customer-support,2020-07-29,,88/100 Willis Street,Wellington,6011,New Zealand,,PO Box 31310,Wellington,5040,New Zealand,Crown agents,
careers-new-zealand,Careers New Zealand,,0800601301,+6444625201,customerservice@tec.govt.nz,https://www.careers.govt.nz,https://www.careers.govt.nz/about-careers-nz/contact-us/,2023-12-19,,44 The Terrace,Wellington,6011,New Zealand,,PO Box 27 048,Wellington,6141,New Zealand,Crown agents,tertiary-education-commission
carterton-district-council,Carterton District Council,,,+6463794030,info@cdc.govt.nz,http://cdc.govt.nz/,http://cdc.govt.nz/contact/,2020-06-15,,Holloway Street,Carterton,5743,New Zealand,,PO Box 9  ,Carterton,5743,New Zealand,District Council,
catch-history-review-committee,Catch History Review Committee,,0800008333,,info@mpi.govt.nz,https://www.mpi.govt.nz/,https://www.mpi.govt.nz/contact-us/,2020-04-15,,25 The Terrace,Wellington,6011,,,PO Box 2526,Wellington,6140,,,ministry-for-primary-industries
central-hawkes-bay-district-council,Central Hawke’s Bay District Council (CHBDC),,,+6468578060,info@chbdc.govt.nz,http://www.chbdc.govt.nz/,https://www.chbdc.govt.nz/contact-us/,2020-06-09,,28-32 Ruataniwha Street,Waipawa,4210,,,PO Box 127,Waipawa,4240,New Zealand,District Council,
central-otago-district-council,Central Otago District Council,,,+6434400056,info@codc.govt.nz,http://www.codc.govt.nz,https://www.codc.govt.nz/contact-us/?ed-step=1,2021-01-07,,1  Dunorling St,Alexandra,9320,New Zealand,,PO Box 122,Alexandra,9340,New Zealand,District Council,
central-south-island-fish-and-game-council,Central South Island Fish and Game Council,,,+6436158400,csi@fishandgame.org.nz,https://fishandgame.org.nz/centralsouthisland/,https://fishandgame.org.nz/centralsouthisland/,2020-07-29,,32  Richard Pearse Drive,Temuka,7920,New Zealand,,PO Box 150  ,Temuka,7948,New Zealand,Regional,new-zealand-fish-and-game-council
charities-services,Charities Services,Ngā Rātonga Kaupapa Atawhai,0508242748,+6493390848,info@charities.govt.nz,https://www.charities.govt.nz/,https://www.charities.govt.nz/contact-us/,2022-02-01,,45  Pipitea Street,Wellington Central,6011,New Zealand,,PO Box 12138,Wellington Central,6144,New Zealand,Public Service,department-of-internal-affairs
charter-school-agency,Charter School Agency,,,+6444638000,info@charterschools.govt.nz,https://www.charterschools.govt.nz/,https://www.charterschools.govt.nz/contact-us/,2024-12-16,,1 The Terrace,Wellington 6011,,,,PO Box 1666  Wellington 6140  ,,,New Zealand,,
chatham-islands-council,Chatham Islands Council,,,+6433050033,info@cic.govt.nz,http://www.cic.govt.nz,https://www.cic.govt.nz/contact/,2020-06-15,,9 Tuku Rd,Chatham Islands,,New Zealand,,PO Box 24,Chatham Islands,8942,New Zealand,District Council,
christchurch-city-council,Christchurch City Council,,0800800169,+6439418999,,http://www.ccc.govt.nz/,https://www.ccc.govt.nz/contact-us,2024-08-09,,53 Hereford Street,Christchurch,,,,,,,,City Council,
city-rail-link-limited,City Rail Link Limited,,08002758255,,info@cityraillink.govt.nz,https://www.cityraillink.co.nz,https://www.cityraillink.co.nz/crl-contact,2020-07-29,,,,,,,PO Box 9681,Auckland,1149,,Public Finance Act Schedule 4a companies,
civil-aviation-authority-of-new-zealand,Civil Aviation Authority of New Zealand,Te Mana Rererangi Tūmatanui o Aotearoa,,+6445609400,info@caa.govt.nz,https://www.aviation.govt.nz/,https://www.aviation.govt.nz/about-us/contact-us/,2020-07-29,,55 Featherston Street,Wellington,,New Zealand,,PO Box 3555,Wellington,6140,New Zealand,Crown agents,
climate-change-commission,Climate Change Commission,,,,enquiries@climatecommission.govt.nz,https://www.climatecommission.govt.nz/,,2021-07-06,,1 Willis Street,Wellington,6011,,,PO Box 24448,Wellington,6142,,Crown entities,
clutha-district-council,Clutha District Council,,0800801350,+6434190200,help.desk@cluthadc.govt.nz,http://www.cluthadc.govt.nz/,https://www.cluthadc.govt.nz/council/contact-us,2021-01-07,,1  Rosebank Terrace,Balclutha,,New Zealand,,PO Box 25,Balclutha,9240,New Zealand,District Council,
commerce-commission,Commerce Commission,Te Komihana Tauhokohoko,0800943600,+6449243600,contact@comcom.govt.nz,http://www.comcom.govt.nz,https://comcom.govt.nz/contact-us,2020-07-29,,44 The Terrace,Wellington,6011,New Zealand,,PO Box 2351,Wellington,6140,New Zealand,Independent Crown entities,
companies-office,Companies Office,,0508266726,+6439622602,info@med.govt.nz,https://www.companiesoffice.govt.nz/,https://www.companiesoffice.govt.nz/about-us/contact-us/,2021-04-09,,135 Albert Street,Auckland,1010,New Zealand,,Private Bag 92061  Victoria Street West,Auckland,1142,,Public Service,ministry-of-business-innovation-and-employment
consumer-protection,Consumer Protection,,0508426678(05084CONSUMER),+6444742750(outsideNZ),cpinfo@mbie.govt.nz,https://www.consumerprotection.govt.nz/,https://www.consumerprotection.govt.nz/contact-us/,2021-10-13,,15 Stout Street,Wellington,6011,New Zealand,,"Consumer Protection  Ministry of Business, Innovation and Employment  PO Box 1473",Wellington,6140,New Zealand,Public Service,ministry-of-business-innovation-and-employment
controller-and-auditor-general,Controller and Auditor-General,Tumuaki o te Mana Arotake,,+6449171500,enquiry@oag.parliament.nz,https://oag.parliament.nz/,https://oag.parliament.nz/contact-us,2020-03-10,,100 Molesworth Street,Wellington,6011,New Zealand,,PO Box 3928,Wellington,6140,New Zealand,Offices of Parliament,
court-of-appeal,Court of Appeal,,0800268787,+6449143540,Courtofappeal@justice.govt.nz,http://www.justice.govt.nz/courts/court-of-appeal/,http://www.justice.govt.nz/services/finding-your-local-court,2020-06-09,,Corner Molesworth and  Aitken Streets,Wellington,,New Zealand,,,,,,Public Service,
creative-new-zealand,Creative New Zealand,Toi Aotearoa,,+6444730880,info@creativenz.govt.nz,http://www.creativenz.govt.nz/,http://www.creativenz.govt.nz/about-creative-new-zealand/contact-us,2020-08-12,,85 Molesworth Street,Wellington,6011,New Zealand,,PO Box 3806,Wellington,6140,New Zealand,Autonomous crown entities,
criminal-cases-review-commission,Criminal Cases Review Commission (CCRC),Te Kāhui Tātari Ture,0800337788,,info@ccrc.nz,https://www.ccrc.nz/,https://www.ccrc.nz/contact-us/,2021-08-24,,,,,,,PO Box 9168,Hamilton,3240,,Independent Crown entities,
crown-asset-management-limited,Crown Asset Management Limited,,,+6448947045,enquiry@crownassetmanagement.co.nz,https://treasury.govt.nz/information-and-services/commercial-portfolio-and-advice/commercial-portfolio/crown-asset-management-limited,,2020-08-03,,,,,,,PO Box 778,Wellington,6140,New Zealand,Public Finance Act Schedule 4a companies,
crown-infrastructure-partners-limited,Crown Infrastructure Partners Limited,,,,info@crowninfrastructure.govt.nz,https://www.crowninfrastructure.govt.nz/,https://www.crowninfrastructure.govt.nz/contact-us/,2020-07-29,,48 Shortland Street,Auckland,1010,New Zealand,,PO Box 105321,Auckland,1143,New Zealand,Public Finance Act Schedule 4a companies,
crown-irrigation-investments-limited,Crown Irrigation Investments Limited (CIIL),,,042820610,info@crownirrigation.co.nz,http://www.crownirrigation.co.nz/,,2021-07-06,,1 Post Office Square,Wellington,6140,,,PO Box 5177  ,Wellington,6140,,Crown entities,
crown-law-office,Crown Law Office,Te Tari Ture o te Karauna,,+6444721719,library@crownlaw.govt.nz,http://www.crownlaw.govt.nz/,http://www.crownlaw.govt.nz/contact-us/,2020-08-10,,19  Aitken Street,Wellington,,New Zealand,,PO Box 2858,Wellington,6140,,Public Service,
customs-appeal-authority,Customs Appeal Authority,,,+6444626660,tribunals@justice.govt.nz,https://www.justice.govt.nz/tribunals/customs-appeal-authority/apply/,https://www.justice.govt.nz/contact-us,2018-03-27,,86 Customhouse Quay,Wellington,6011,,,Customs Appeal Authority  Tribunals Unit  Private Bag 32001,Wellington,6146,,,ministry-of-justice
defence-employer-support-council,Defence Employer Support Council,Te Arawhiti ki te Hapori,,+6444986549,desc@nzdf.mil.nz,,,2016-10-31,,2-12  Aitken Street,Wellington,6011,New Zealand,,DESC Secretariat  Private Bag 39997  Wellington Mail Centre,Wellington,5045,New Zealand,Statutory entities,
department-of-conservation,Department of Conservation,,0800275362,+6444710726,info@doc.govt.nz,http://www.doc.govt.nz/,http://www.doc.govt.nz/footer-links/contact-us/,2021-04-09,,18-32 Manners Street,Wellington,6011,New Zealand,,PO Box 10420,Wellington,6143,,Public Service,
department-of-corrections,Department of Corrections,,,+6444603000,info@corrections.govt.nz,http://www.corrections.govt.nz,http://www.corrections.govt.nz/about_us/getting_in_touch/contact_us.html,2021-04-09,,44-52 The Terrace,Wellington,6011,New Zealand,,Private Box 1206,Wellington,6140,,Public Service,
department-of-internal-affairs,Department of Internal Affairs,Te Tari Taiwhenua,0800257887,+6444957200,,http://www.dia.govt.nz,http://www.dia.govt.nz/Contact-us,2021-04-09,,45 Pipitea Street,Wellington,6011,New Zealand,,PO Box 805,Wellington,6140,New Zealand,Public Service,
department-of-the-prime-minister-and-cabinet,Department of the Prime Minister and Cabinet,Te Tari o te Pirimia me te Rūnanga Kāwanatanga,,+6448179700,,http://www.dpmc.govt.nz,http://www.dpmc.govt.nz/contact-us,2021-04-09,,,Wellington,6011,New Zealand,,Executive Wing  Parliament Buildings,Wellington,6011,New Zealand,Public Service,
digital-identity-services-trust-framework-regulator,Digital Identity Services Trust Framework regulator,,0800257887,+6444957200,TFA@dia.govt.nz,https://www.digital.govt.nz/standards-and-guidance/identity/trust-framework/trust-framework-authority/,,2024-07-01,,45 Pipitea Street,Wellington,6011,,,PO Box 805,Wellington,6140,,,department-of-internal-affairs
disputes-tribunal,Disputes Tribunal,,0800268787,+6495831900,contactus@justice.govt.nz,http://www.justice.govt.nz/tribunals/disputes-tribunal,http://www.justice.govt.nz/tribunals/disputes-tribunal/contact-us,2021-03-22,,43-49  Ballance Street,Wellington,,New Zealand,,,,,,Public Service,
district-courts,District Courts,,0800268787,,,http://www.districtcourts.govt.nz/,http://www.justice.govt.nz/contact-us/find-us/,2025-01-23,,,,,,,,,,,Public Service,
drug-free-sport-new-zealand,Drug Free Sport New Zealand,,,+6495820388,info@drugfreesport.org.nz,http://www.drugfreesport.org.nz/,http://www.drugfreesport.org.nz/contact-us/,2024-07-01,,666 Great South Road,Auckland,1051,New Zealand,,PO Box 17451,Auckland,1546,New Zealand,Independent Crown entities,
dunedin-city-council,Dunedin City Council,,,+6434774000,dcc@dcc.govt.nz,http://www.dunedin.govt.nz/,http://www.dunedin.govt.nz/contact-us,2020-06-09,,50 The Octagon,Dunedin,,New Zealand,,PO Box 5045,Dunedin,9058,New Zealand,City Council,
eastern-fish-and-game-council,Eastern Fish and Game Council,,,+6473575501,eastern@fishandgame.org.nz,https://fishandgame.org.nz/eastern/,https://fishandgame.org.nz/eastern/,2020-07-29,,1130 Paradise Valley Road,Rotorua,,,,Private Bag 3010,Rotorua,3046,New Zealand,Regional,new-zealand-fish-and-game-council
eastern-institute-of-technology,Eastern Institute of Technology,,,+6469748000,info@eit.ac.nz,http://www.eit.ac.nz/,http://www.eit.ac.nz/contact-maps/,2020-07-29,,501 Gloucester Street,Napier,4142,New Zealand,,Private Bag 1201  Hawke's Bay Mail Centre,Napier,4142,New Zealand,Polytechnics/Institutes of technology,
education-new-zealand,Education New Zealand (ENZ),Manapou ki te Ao,,+6444720788,info@studyinnewzealand.govt.nz,https://www.enz.govt.nz/,https://www.enz.govt.nz/about-enz/contact-us/,2024-10-07,,160 Lambton Quay,Wellington,6011,New Zealand,,PO Box 12041,Wellington,6144,New Zealand,Crown agents,
education-payroll,Education Payroll (EPL),Rārangi Utu ā-Mātauranga,,,info@edpay.govt.nz,,,2020-07-29,,,,,,,PO Box 3049,Wellington,6140,,Public Finance Act Schedule 4a companies,
education-review-office,Education Review Office (ERO),,,+6444992489,info@ero.govt.nz,http://www.ero.govt.nz,http://www.ero.govt.nz/footer-upper/contact-us/,2020-07-29,,101 Lambton Quay,Wellington,6011,New Zealand,,PO Box 2799,Wellington,6140,New Zealand,Public Service,
electoral-commission,Electoral Commission,Te Kaitiaki Take Kōwhiri,0800367656,+6444950030,enquiries@elections.govt.nz,http://www.elections.org.nz,http://www.elections.org.nz/contact-electoral-commission,2021-04-09,,34-42 Manners Street,Wellington,6011,New Zealand,,PO Box 3220,Wellington,6140,,Independent Crown entities,
electrical-workers-registration-board,Electrical Workers Registration Board,,0800661000,+6439434254,info@ewrb.govt.nz,http://www.ewrb.govt.nz/,http://www.ewrb.govt.nz/about-the-board/contact-us/,2020-06-15,,15 Stout Street,Wellington,6011,New Zealand,,PO Box 10-156,Wellington,6143,New Zealand,Public Service,ministry-of-business-innovation-and-employment
electricity-authority,Electricity Authority,Te Mana Hiko,,+6444608860,info@ea.govt.nz,http://www.ea.govt.nz/,http://www.ea.govt.nz/about-us/contact-us/,2020-07-29,,1 Willis Street,Wellington,6143,New Zealand,,"Level 7, AON Centre  1 Willis Street",Wellington,6011,New Zealand,Independent Crown entities,
electricity-corporation-of-new-zealand,Electricity Corporation of New Zealand Limited,,,+6444722733,,https://www.treasury.govt.nz/information-and-services/commercial-portfolio-and-advice/commercial-portfolio/electricity-corporation-new-zealand-limited,https://www.treasury.govt.nz/contact-us,2021-12-22,,1 The Terrace,Wellington,6011,,,PO Box 3724,Wellington,6140,,State-owned enterprises,
employment-court,Employment Court,,,,,http://www.employmentcourt.govt.nz/,http://www.employmentcourt.govt.nz/contact-us/,2020-06-09,,,,,,,,,,,Public Service,
employment-new-zealand,Employment New Zealand,,0800209020,+6499692950(outsideNZ),,https://www.employment.govt.nz/,https://www.employment.govt.nz/about/contact-us/,2021-04-09,,15 Stout Street,Wellington,6011,New Zealand,,,,,,Public Service,ministry-of-business-innovation-and-employment
employment-relations-authority,Employment Relations Authority (ERA),,,+6449159550,,http://www.era.govt.nz/,http://www.era.govt.nz/contact-us/,2020-06-15,,50 Customhouse Quay,Wellington,6011,New Zealand,,,,,,Public Service,
energy-efficiency-and-conservation-authority,Energy Efficiency and Conservation Authority,,0800358676,+6444702200,info@eeca.govt.nz,http://www.eeca.govt.nz/,https://www.eeca.govt.nz/about/get-in-touch/contact-eeca/,2022-08-12,,44 The Terrace,Wellington,,,,PO Box 388,Wellington,6140,New Zealand,Crown agents,
energy-safety,Energy Safety,,0800030040,+6439626248,info@energysafety.govt.nz,http://www.energysafety.govt.nz/,https://worksafe.govt.nz/about-us/contact-us/,2020-04-15,,8 Willis Street,Wellington,6011,New Zealand,,PO Box 165,Wellington,6140,New Zealand,Crown agents,worksafe-new-zealand
environment-canterbury,Environment Canterbury,Kaunihera Taiao ki Waitaha,0800324636,+6433653828,ecinfo@ecan.govt.nz,http://ecan.govt.nz/,http://ecan.govt.nz/about-us/pages/contact.aspx,2019-11-05,,200 Tuam Street,Christchurch,8011,New Zealand,,PO Box 345,Christchurch,8140,New Zealand,Regional Council,
environment-court,Environment Court,,,+6449188300,EnvironmentCourt@justice.govt.nz,http://www.justice.govt.nz/courts/environment-court,http://www.environmentcourt.govt.nz/contact-us/,2020-06-09,,49 Ballance Street,Wellington,6011,,,,,,,Public Service,
environment-southland,Environment Southland,Te Taiao Tonga,0800768845,+6432115115,service@es.govt.nz,http://www.es.govt.nz/,https://www.es.govt.nz/contact-us,2022-10-07,,Corner of North Road and Price Street,Invercargill,9810,New Zealand,,Private Bag 90116,Invercargill,9840,New Zealand,Regional Council,
environmental-protection-authority,Environmental Protection Authority,,,+6449162426,info@epa.govt.nz,http://www.epa.govt.nz,https://www.epa.govt.nz/contact-us/,2020-07-29,,215 Lambton Quay,Wellington,6011,New Zealand,,Private Bag 63002,Wellington,6140,New Zealand,Crown agents,
esr,ESR,,,+6449140700,enquiries@esr.cri.nz,http://www.esr.cri.nz/,https://www.esr.cri.nz/home/contact-us/,2021-10-20,,34 Kenepuru Drive,Porirua,,New Zealand,,PO Box 50348,Porirua,5240,New Zealand,Crown Research Institutes,
external-reporting-board,External Reporting Board,Te Kāwai Ārahi Pūrongo Mōwaho,,+6445502030,enquiries@xrb.govt.nz,http://www.xrb.govt.nz/,http://www.xrb.govt.nz/tools/email.aspx?SECT=about_us,2025-02-12,,154 Featherston Street,Wellington,6011,New Zealand,,PO Box 11250,Wellington,6142,New Zealand,Independent Crown entities,
fairway-resolution,Fairway Resolution (FRL),,0800774422,,fairwayinfo@fairwayresolution.com,https://www.fairwayresolution.com/,https://www.fairwayresolution.com/contact-us,2020-08-13,,66 Wyndham Street,Auckland,1010,,,PO Box 12790,Auckland,1642,,,
far-north-district-council,Far North District Council,Te Kaunihera o Tai Tokerau Ki Te Raki,0800920029,,ask.us@fndc.govt.nz,http://www.fndc.govt.nz/,http://www.fndc.govt.nz/contact,2020-06-12,,5 Memorial Avenue,Kaikohe,0440,New Zealand,,Private Bag 752  ,Kaikohe,0440,New Zealand,District Council,
film-and-literature-board-of-review,Film and Literature Board of Review,,0800257887,+6444957200,info@dia.govt.nz,https://www.dia.govt.nz/diawebsite.nsf/wpg_URL/Agency-Film-and-Literature-Board-of-Review-Index,https://www.dia.govt.nz/Contact-Us,2018-05-17,,45 Pipitea Street,Wellington,6011,,,PO Box 805,Wellington,6140,,,department-of-internal-affairs
financial-markets-authority,Financial Markets Authority,Te Mana Tatai Hokohoko,,+6444729830,,http://www.fma.govt.nz/,https://www.fma.govt.nz/contact/,2020-07-29,,1  Grey St,Wellington,,New Zealand,,PO Box 1179,Wellington,6140,New Zealand,Independent Crown entities,
fire-and-emergency-new-zealand,Fire and Emergency New Zealand,,,+6444963600,,https://www.fireandemergency.nz/,https://www.fireandemergency.nz/contact-us/,2025-01-27,,42 - 52 Willis Street,Wellington,6011,,,PO Box 2133,Wellington,6140,,Crown agents,
food-standards-australia-new-zealand,Food Standards Australia New Zealand,Te Mana Kounga Kai - Ahitereiria me Aotearoa,,+6449785630,info@foodstandards.govt.nz,http://www.foodstandards.gov.au/,http://www.foodstandards.gov.au/Pages/contact-us.aspx,2019-08-05,,154 Featherston Street,Wellington,6011,New Zealand,,PO Box 10559,Wellington,6143,New Zealand,,
gambling-commission,Gambling Commission,,,+6493001113,info@gamblingcom.govt.nz,http://www.gamblingcommission.govt.nz/gcwebsite.nsf,http://www.gamblingcommission.govt.nz/gcwebsite.nsf/wpg_URL/About-Us-Contact-Us-Index!OpenDocument,2021-08-25,,65 New North Road,Auckland,1140,New Zealand,,PO Box 3310  Shortland Steet,Auckland,1140,New Zealand,Public Sector,
game-animal-council,Game Animal Council,,,021688531,info@nzgac.org.nz,https://nzgameanimalcouncil.org.nz/,https://nzgameanimalcouncil.org.nz/contact-us/,2023-11-13,,,,,,,PO Box 222,Te Puke,3153,,Public Finance Act Schedule 4 organisations,
genesis-energy-limited,Genesis Energy Limited,,0800437636,+6495802094,info@genesisenergy.co.nz,https://www.genesisenergy.co.nz/,https://www.genesisenergy.co.nz/contact-us,2020-04-15,,"Level 6, 155 Fanshawe Street",Auckland,1010,New Zealand,,PO Box 90477,Auckland,1142,New Zealand,Mixed ownership model companies,
gisborne-district-council,Gisborne District Council,,0800653800,+6468672049,service@gdc.govt.nz,http://www.gdc.govt.nz/,https://www.gdc.govt.nz/council/contact-us,2021-10-20,,15 Fitzherbert Street,Gisborne,4010,New Zealand,,PO Box 747,Gisborne,4010,New Zealand,District Council,
gns-science,GNS Science,Te Pū Ao,,+6445701444,webmaster@gns.cri.nz,http://www.gns.cri.nz,http://www.gns.cri.nz/Home/Contact-Us,2020-07-29,,1 Fairway Drive,Lower Hutt,5010,,,PO Box 30-368,Lower Hutt,5040,New Zealand,Crown Research Institutes,
gore-district-council,Gore District Council,,0800467332,+6432090330,info@goredc.govt.nz,http://www.goredc.govt.nz/,https://www.goredc.govt.nz/council/contact-us,2021-10-20,,29 Civic Avenue,Gore,9710,New Zealand,,PO Box 8,Gore,9740,New Zealand,District Council,
government-communications-security-bureau,Government Communications Security Bureau,Te Tira Tiaki,,+6444726881,info@gcsb.govt.nz,http://www.gcsb.govt.nz/,http://www.gcsb.govt.nz/contact/,2020-07-29,,1-15 Pipitea Street,Wellington,6144,New Zealand,,PO Box 12209,Wellington,6144,New Zealand,Public Service,
government-superannuation-appeals-board,Government Superannuation Appeals Board,,,+6444996999,enquiries@gsfa.govt.nz,http://www.gsfa.govt.nz/,http://www.gsfa.govt.nz/about-us/contact-us/,2018-04-05,,95 Customhouse Quay,Wellington,6011,,,Government Superannuation Fund Authority  PO Box 3390,Wellington,6140,,,the-treasury
government-superannuation-fund-authority,Government Superannuation Fund Authority (GSFNZ),,,+6444996999,enquiries@gsfa.govt.nz,http://www.gsfa.govt.nz/,http://www.gsfa.govt.nz/content/dbf1acd4-5bcb-4335-babb-887743b0d843.html,2020-07-29,,95 Customhouse Quay,Wellington,6011,New Zealand,,PO Box 3390,Wellington,6140,New Zealand,Autonomous crown entities,
governor-general,Governor-General,Te Kāwana Tianara o Aotearoa,,+6443898055,,http://gg.govt.nz/,http://gg.govt.nz/contact,2021-12-09,,Rugby St,Wellington,,,,,,,,Public Sector,
greater-wellington-regional-council,Greater Wellington Regional Council,,0800496734,+6443845708,info@gw.govt.nz,http://www.gw.govt.nz/,http://www.gw.govt.nz/contact-us,2024-07-12,,100 Cuba Street,Wellington,6011,New Zealand,,PO Box 11646,Wellington,6011,New Zealand,Regional Council,
grey-district-council,Grey District Council,Māwhera,,+6437698600,info@greydc.govt.nz,http://www.greydc.govt.nz,https://www.greydc.govt.nz/04your-council/council-contacts,2021-10-20,,105 Tainui Street,Greymouth,7805,New Zealand,,PO Box 382,Greymouth,7840,New Zealand,District Council,
guardians-of-new-zealand-superannuation,Guardians of New Zealand Superannuation,,,+6493006980,enquiries@nzsuperfund.co.nz,https://www.nzsuperfund.nz/,https://www.nzsuperfund.nz/contact-us/,2024-04-23,,21 Queen Street,Auckland,1010,New Zealand,,PO Box 106607,Auckland,1143,New Zealand,Autonomous crown entities,
hamilton-city-council,Hamilton City Council,Te kaunihera o Kirikiriroa,,+6478386699,info@hcc.govt.nz,http://www.hamilton.govt.nz/,http://www.hamilton.govt.nz/Pages/contact-us.aspx,2020-06-12,,Garden Place,Hamilton,,New Zealand,,Private Bag 3010,Hamilton,3240,New Zealand,City Council,
hastings-district-council,Hastings District Council,,,+6468715000,customerservice@hdc.govt.nz,http://www.hastingsdc.govt.nz/,http://www.hastingsdc.govt.nz/contact-us,2020-06-12,,207 Lyndon Road East,Hastings,,New Zealand,,Private Bag 9002,Hastings,4156,New Zealand,District Council,
hauraki-district-council,Hauraki District Council,,0800734834,+6478628609,info@hauraki-dc.govt.nz,http://www.hauraki-dc.govt.nz/,http://www.hauraki-dc.govt.nz/contact-us,2020-06-12,,1 William Street,Paeroa,3600,New Zealand,,PO Box 17,Paeroa,3640,New Zealand,District Council,
hawkes-bay-fish-and-game-council,Hawke’s Bay Fish and Game Council,,0800242342,+6468442460,hawkesbay@fishandgame.org.nz,https://fishandgame.org.nz/hawkesbay/,https://fishandgame.org.nz/hawkesbay/,2020-11-12,,22 Burness Road,Napier,4112,New Zealand,,PO Box 7345,Napier,4141,New Zealand,Regional,new-zealand-fish-and-game-council
hawkes-bay-regional-council,Hawke’s Bay Regional Council,,,+6468359200,info@hbrc.govt.nz,http://www.hbrc.govt.nz/,https://www.hbrc.govt.nz/contact-us/,2022-10-17,,159 Dalton Street,Napier,4110,New Zealand,,Private Bag 6006,Napier,4142,New Zealand,Regional Council,
health-and-disability-commissioner,Health and Disability Commissioner,Te Toihau Hauora Hauātanga,0800112233,+6493731060,hdc@hdc.org.nz,http://www.hdc.org.nz/,http://www.hdc.org.nz/contact/,2020-07-29,,45 Queen Street,Auckland,1010,New Zealand,,PO Box 1791,Auckland,1140,New Zealand,Independent Crown entities,
health-nz-te-whatu-ora,Health New Zealand,Te Whatu Ora,0800855066,,customerservice@health.govt.nz,https://www.tewhatuora.govt.nz/,https://www.tewhatuora.govt.nz/about-us/contact-us/,2024-08-12,,42-52 Willis Street,Wellington,6011,,,PO Box 793,Wellington,6140,,Public Sector,
health-quality-and-safety-commission-new-zealand,Health Quality and Safety Commission,Kupu Taurangi Hauora o Aotearoa,,+6449016040,info@hqsc.govt.nz,http://www.hqsc.govt.nz/,http://www.hqsc.govt.nz/section/12383/contact-us/?section=12383&tab=2349,2020-08-12,,17-21 Whitmore Street,Wellington,6011,New Zealand,,PO Box 25496,Wellington,6146,New Zealand,Crown agents,
health-research-council-of-new-zealand,Health Research Council of New Zealand,Te Kaunihera Rangahau Hauora o Aotearoa,,+6493035200,info@hrc.govt.nz,http://www.hrc.govt.nz/,http://www.hrc.govt.nz/contact-us,2020-07-29,,110 Symonds Street,Auckland,1010,New Zealand,,PO Box 5541  Victoria Street West,Auckland,1142,New Zealand,Crown agents,
healthline,Healthline,,0800611116,,,http://www.healthline.govt.nz,,2016-10-31,,,,,,,,,,,,whakarongorau-aotearoa
heartland-services,Heartland Services,,,,rural_community_hubs@msd.govt.nz,http://www.heartlandservices.govt.nz/,http://www.heartlandservices.govt.nz/tools/contact-us.html,2024-09-04,,56 The Terrace,Wellington,6011,New Zealand,,PO Box 1556,Wellington,,New Zealand,Public Service,
herengaanuku,Herenga ā Nuku Aotearoa,Outdoor Access Commission,,+6448158502,info@herengaanuku.govt.nz,https://www.herengaanuku.govt.nz/,https://www.herengaanuku.govt.nz/about-us/contact-us/,2020-07-30,,100 Willis Street,Wellington,,New Zealand,,PO Box 11181,Wellington,6142,New Zealand,Crown agents,
heritage-nz,Heritage New Zealand Pouhere Taonga,Pouhere Taonga,,+6444724341,information@heritage.org.nz,http://www.heritage.org.nz,http://www.heritage.org.nz/contact-us,2020-08-12,,63 Boulcott Street,Wellington,6011,New Zealand,,PO Box 2629,Wellington,6140,New Zealand,Autonomous crown entities,
high-court,High Court,,,,,http://www.justice.govt.nz/courts/high-court,http://www.justice.govt.nz/contact-us/find-us/,2020-06-15,,,,,,,,,,,Public Service,
high-performance-sport-nz,High Performance Sport NZ (HPSNZ),HPSNZ,,094775420,info@hpsnz.org.nz,https://hpsnz.org.nz,https://hpsnz.org.nz/contact/,2021-10-28,,17 Antares Place,Auckland,0632,,,PO Box 302 563,Auckland,0751,,Crown entity subsidiaries,
horizons-regional-council,Horizons Regional Council,,0508800800,+6469522800,help@horizons.govt.nz,http://www.horizons.govt.nz/,http://www.horizons.govt.nz/about-us/who-what-where/contact-us/,2022-10-17,,11-15 Victoria Avenue,Palmerston North,,New Zealand,,Private Bag 11025,Palmerston North,4442,New Zealand,Regional Council,
horowhenua-district-council,Horowhenua District Council,,05089494949,+6463660999,enquiries@horowhenua.govt.nz,http://www.horowhenua.govt.nz/,http://www.horowhenua.govt.nz/Contact-Us,2022-10-12,,126-148 Oxford Street,Levin,,New Zealand,,Private Bag 4002,Levin,5540,New Zealand,District Council,
housing-new-zealand-corporation,Kāinga Ora – Homes and Communities,,0800801601,+6444393253,,https://kaingaora.govt.nz/,https://kaingaora.govt.nz/contact-us/,2021-04-09,,80 Boulcott Street,Wellington,6011,New Zealand,,PO Box 2628,Wellington,6140,New Zealand,Crown agents,
human-rights-commission,Human Rights Commission,Te Kāhui Tika Tangata,0800496877,,infoline@hrc.co.nz,http://www.hrc.co.nz/,http://www.hrc.co.nz/contact/,2022-07-26,,10 Brandon Street,Wellington,6011,New Zealand,,PO Box 10424,Wellington,6140,New Zealand,Independent Crown entities,
human-rights-review-tribunal,Human Rights Review Tribunal,,,+6444626660,hrrt@justice.govt.nz,https://www.justice.govt.nz/tribunals/human-rights/,https://www.justice.govt.nz/tribunals/human-rights/contact/,2020-06-12,,86 Customhouse Quay,Wellington,6011,,,Human Rights Review Tribunal  Tribunals Unit  Private Bag 32001,Wellington,6146,,,ministry-of-justice
hurunui-district-council,Hurunui District Council,,,+6433148816,info@hurunui.govt.nz,http://www.hurunui.govt.nz/,https://www.hurunui.govt.nz/council/contact,2022-10-12,,66 Carters Road (SH1),Amberley,7410,New Zealand,,PO Box 13,North Canterbury,7441,New Zealand,District Council,
hutt-city-council,Hutt City Council,Te Awa Kairangi,0800488824,+6445706666,Contact@huttcity.govt.nz,http://www.huttcity.govt.nz/,https://www.huttcity.govt.nz/council/contact-us,2022-10-12,,30  Laings Road,Lower Hutt,5010,New Zealand,,Private Bag 31-912,Lower Hutt,5040,New Zealand,City Council,
immigration-advisers-authority,Immigration Advisers Authority,,0508422422,+6499253838,info@iaa.govt.nz,http://www.iaa.govt.nz/,http://www.iaa.govt.nz/about/contact/index.asp,2021-08-27,,167b Victoria Street,Auckland,1010,New Zealand,,PO Box 6222  Victoria Street West,Auckland,1142,New Zealand,Statutory entities,ministry-of-business-innovation-and-employment
immigration-and-protection-tribunal,Immigration and Protection Tribunal,,,+6499144299,IPT@justice.govt.nz,http://www.justice.govt.nz/tribunals/immigration/immigration-and-protection/,http://www.justice.govt.nz/tribunals/immigration/immigration-and-protection/contact/,2016-10-31,,41 Federal Street,Auckland,1010,New Zealand,,DX EX 11086,Auckland,1010,New Zealand,Public Service,
immigration-new-zealand,Immigration New Zealand,,0508558855,+6499144100,,http://www.immigration.govt.nz,http://www.immigration.govt.nz/migrant/general/aboutnzis/contactus/,2021-04-09,,15 Stout Street,Wellington,6011,New Zealand,,PO Box 1473,Wellington,6140,New Zealand,Public Service,ministry-of-business-innovation-and-employment
independent-police-conduct-authority,Independent Police Conduct Authority,Whaia te pono kia puawai ko te tika,0800503728,+6444992050,enquiries@ipca.govt.nz,http://www.ipca.govt.nz/,http://www.ipca.govt.nz/Site/contact/default.aspx,2020-07-29,,1 Grey Street,Wellington,6011,New Zealand,,PO Box 25221    ,Wellington,6146,New Zealand,Independent Crown entities,
infrastructure-commission,Infrastructure Commission (InC),Te Waihanga,,+6448897500,info@tewaihanga.govt.nz,https://tewaihanga.govt.nz/,https://tewaihanga.govt.nz/about-us/get-in-touch,2022-07-26,,95 Customhouse Quay,Wellington,6011,,,DX SX33303,Wellington,,,Autonomous crown entities,
inland-revenue,Inland Revenue,Te Tari Taake,0800775247,,,http://www.ird.govt.nz/,http://www.ird.govt.nz/contact-us/?idglobalnav,2021-04-09,,5 Osterley Way,Auckland,2104,New Zealand,,PO Box 39010,Lower Hutt,5045,,Public Service,
insolvency-and-trustee-service,Insolvency and Trustee Service,,0508467658,+6439622581,,http://www.insolvency.govt.nz,http://www.insolvency.govt.nz/cms/support/contact,2016-10-31,,,,,,,Private Bag 4714,Christchurch,8140,New Zealand,Public Service,ministry-of-business-innovation-and-employment
integrity-sport-and-recreation-commission,Integrity Sport and Recreation Commission,,,+6495820388,info@sportintegrity.nz,https://sportintegrity.nz/,https://sportintegrity.nz/organisation/contact-us/,2024-07-01,,666 Great South Road,Auckland,1051,New Zealand,,PO Box 17451,Auckland,1546,New Zealand,Independent Crown entities,
intellectual-property-office-of-new-zealand,Intellectual Property Office of New Zealand,,0508447669,+6439622607,info@iponz.govt.nz,http://www.iponz.govt.nz,https://www.iponz.govt.nz/contact-us/,2018-01-09,,15 Stout Street,Wellington,6011,New Zealand,,PO Box 9241,Wellington,6141,New Zealand,Public Service,ministry-of-business-innovation-and-employment
international-accreditation-new-zealand,International Accreditation New Zealand,,,+6495256655,info@ianz.govt.nz,http://www.ianz.govt.nz/,https://www.ianz.govt.nz/contact-us,2021-01-07,,626 Great South Road,Auckland,1051,New Zealand,,Private Bag 28908,Auckland,1541,New Zealand,Autonomous crown entities,accreditation-council
invercargill-city-council,Invercargill City Council,,0800422435,+6432111777,service@icc.govt.nz,http://www.icc.govt.nz/,http://icc.govt.nz/contact-icc/,2022-10-14,,101 Esk Street,Invercargill,9810,New Zealand,,Private Bag 90104,Invercargill,9840,New Zealand,City Council,
kaikoura-district-council,Kaikōura District Council,,,+6433195026,kdc@kaikoura.govt.nz,http://www.kaikoura.govt.nz/,http://www.kaikoura.govt.nz/contact-us/,2022-10-14,,96 West End,Kaikōura,,New Zealand,,PO Box 6,Kaikōura,7340,New Zealand,District Council,
kaipara-district-council,Kaipara District Council,Kaipara te Oranganui,0800727059,+6494393123,council@kaipara.govt.nz,http://www.kaipara.govt.nz/,http://www.kaipara.govt.nz/Contact+Us.html,2022-10-12,,42 Hokianga Road,Dargaville,0310,New Zealand,,Private Bag 1001,Dargaville,0340,New Zealand,District Council,
kapiti-coast-district-council,Kapiti Coast District Council,,0800486486,+6442964700,Kapiti.Council@kapiticoast.govt.nz,http://www.kapiticoast.govt.nz/,http://www.kapiticoast.govt.nz/Contact-Us/,2022-10-17,,175  Rimu Road,Paraparaumu,5032,New Zealand,,Private Bag 60601  ,Paraparaumu,5032,New Zealand,District Council,
kawerau-district-council,Kawerau District Council,Taonga o te Whenua,,+6473069009,office@kaweraudc.govt.nz,http://www.kaweraudc.govt.nz/,https://www.kaweraudc.govt.nz/contact-us,2022-10-17,,Ranfurly Court,Kawerau,3127,New Zealand,,Private Bag 1004  ,Kawerau,3169,New Zealand,District Council,
kiwirail,KiwiRail Holdings Limited,,0800801070,+6444983000,kiwirail@kiwirail.co.nz,http://www.kiwirail.co.nz/,http://www.kiwirail.co.nz/contact-us,2020-07-29,,Bunny Street,Wellington,,New Zealand,,PO Box 593,Wellington,6140,New Zealand,State-owned enterprises,
kordia-group-limited,Kordia Group Limited,,0800KORDIA,+6495517000,,http://www.kordia.co.nz/,https://kordia.co.nz/contact/,2020-07-29,,162 Victoria Street West,Auckland,1010,New Zealand,,PO Box 2495,Auckland,1140,New Zealand,State-owned enterprises,
land-information-new-zealand,Land Information New Zealand,Toitū Te Whenua,0800665463,+6479745595,customersupport@linz.govt.nz,http://www.linz.govt.nz,http://www.linz.govt.nz/about-linz/contact-us,2021-04-09,,155 The Terrace,Wellington,6011,New Zealand,,PO Box 5501,Wellington,6145,New Zealand,Public Service,
landcare-research-new-zealand-limited,Landcare Research New Zealand Limited,Manaaki Whenua,,+6433219999,webmaster@landcareresearch.co.nz,http://www.landcareresearch.co.nz/,https://www.landcareresearch.co.nz/contact-us-company/,2021-01-07,,Gerald Street,Lincoln,7608,New Zealand,,PO Box 69040,Lincoln,7640,New Zealand,Crown Research Institutes,
landcorp,Landcorp,,,+6443814050,enquiries@landcorp.co.nz,https://pamunewzealand.com/,https://pamunewzealand.com/contact,2020-07-29,,15 Allen Street,Wellington,6145,New Zealand,,PO Box 5349,Wellington,6145,New Zealand,State-owned enterprises,
law-commission,Law Commission,Te Aka Matua O Te Ture,,+6444733453,com@lawcom.govt.nz,http://www.lawcom.govt.nz/,http://www.lawcom.govt.nz/contact-us,2020-07-29,,70 The Terrace,Wellington,6011,New Zealand,,PO Box 2590,Wellington,6140,New Zealand,Independent Crown entities,
leadership-development-centre,Leadership Development Centre (LDC),,,+6444732222,info@ldc.govt.nz,https://www.ldc.govt.nz/,https://www.ldc.govt.nz/about-us/contact-us/,2021-11-01,,2 The Terrace,Wellington,6011,,,PO Box 329,Wellington,6140,,Public Service,public-service-commission
legal-aid-tribunal,Legal Aid Tribunal,,,+6444626660,tribunals@justice.govt.nz,http://www.justice.govt.nz/tribunals/legal-aid/,http://www.justice.govt.nz/tribunals/legal-aid/legal-aid-tribunal/contact/,2020-06-12,,86  Customhouse Quay,Wellington,6011,New Zealand,,Private Bag 32001  ,Wellington,6011,New Zealand,Public Service,
legislation-design-advisory-committee,Legislation Design and Advisory Committee,,,+6444729639,Contact.LDAC@pco.govt.nz,http://www.ldac.org.nz/,http://www.ldac.org.nz/contact/,2021-08-27,,,,,,,LDAC Secretary (Legal and Policy Adviser)  Parliamentary Counsel Office  PO Box 18 070,Wellington,6160,New Zealand,Statutory entities,
lincoln-university,Lincoln University,Te Whare Wanaka o Aoraki,0800106010,+6434230000,info@lincoln.ac.nz,http://www.lincoln.ac.nz/,http://www.lincoln.ac.nz/Contact-Us/,2020-07-29,,Ellesmere Junction Road/Springs Road,Canterbury,,New Zealand,,PO Box 85084,Canterbury,7647,New Zealand,Universities,
local-government-commission,Local Government Commission,Mana Kāwanatanga ā Rohe,,+6444602228,info@lgc.govt.nz,http://www.lgc.govt.nz/,http://www.lgc.govt.nz/commission-news-and-contact-information/contact-the-commission/,2021-08-25,,,,,,,PO Box 5362,Wellington,6140,New Zealand,Statutory entities,
mackenzie-district-council,Mackenzie District Council,,08006858514,+6436859010,info@mackenzie.govt.nz,http://www.mackenzie.govt.nz/,https://www.mackenzie.govt.nz/pages/contact,2022-10-17,,Main Street,Fairlie,7949,New Zealand,,PO Box 52,Fairlie,7949,New Zealand,District Council,
mana-mokopuna-children-and-young-peoples-commission,Mana Mokopuna - Children and Young People’s Commission,,0800224453,+6444711410,children@manamokopuna.org.nz,https://www.manamokopuna.org.nz/,https://www.manamokopuna.org.nz/media-contact/,2020-08-26,,110 Featherston Street,Wellington,,New Zealand,,PO Box 5610,Wellington,6145,New Zealand,Independent Crown entities,
manawatu-district-council,Manawatu District Council,,,+6463230000,public@mdc.govt.nz,http://www.mdc.govt.nz/,https://www.mdc.govt.nz/contact-us,2022-10-14,,135 Manchester Street,Feilding,4702,New Zealand,,Private Bag 10001,Feilding,4743,New Zealand,District Council,
manukau-institute-of-technology,Manukau Institute of Technology,Te Whare Takiura o Manukau,0800226262,+6499688000,info@manukau.ac.nz,http://www.manukau.ac.nz/,http://www.manukau.ac.nz/?a=124096,2020-08-03,,Corner East Tamaki Road and Newbury Street,Auckland,2241,New Zealand,,Private Bag 94006,,2241,New Zealand,Polytechnics/Institutes of technology,
maori-land-court,Māori Land Court,Te Kooti Whenua Māori,,+6449143102,mlcnationaloffice@justice.govt.nz,http://www.justice.govt.nz/courts/maori-land-court,http://www.justice.govt.nz/courts/maori-land-court/contact-us,2020-06-15,,141  The Terrace,Wellington,,New Zealand,,DX Box SX11203,Wellington,,New Zealand,Public Service,
maori-television,Māori Television Service,Te Aratuku Whakāta Irirangi Māori,,+6495397000,feedback@maoritelevision.com,http://www.maoritelevision.com/,http://www.maoritelevision.com/about/contact-us,2021-08-25,,433 East Tāmaki Road,Auckland,2013,New Zealand,,PO Box 64341,Auckland,2013,New Zealand,Other (bodies corporate),
maritime-new-zealand,Maritime New Zealand,Nō te rere moana Aotearoa,0508225522,+6444730111,enquiries@maritimenz.govt.nz,http://www.maritimenz.govt.nz,http://www.maritimenz.govt.nz/Contact-us/Contact-Maritime-New-Zealand.asp,2020-07-29,,1 Grey Street,Wellington,6011,New Zealand,,PO Box 25620,Wellington,6146,New Zealand,Crown agents,
marlborough-district-council,Marlborough District Council,,,+6435207400,mdc@marlborough.govt.nz,http://www.marlborough.govt.nz/,http://www.marlborough.govt.nz/Contact-Us.aspx,2022-10-14,,15  Seymour Street,Blenheim,7201,New Zealand,,PO Box 443  ,Blenheim,7240,New Zealand,District Council,
massey-university,Massey University,Te Kunenga Ki Pūrehuroa,0800627739,+6463505701,contact@massey.ac.nz,http://www.massey.ac.nz/,http://www.massey.ac.nz/massey/contact/,2020-07-29,,Tennent Drive,Palmerston North,,New Zealand,,Private Bag 11-222,Palmerston North,4442,New Zealand,Universities,
masterton-district-council,Masterton District Council,,,+6463706300,mdc@mstn.govt.nz,http://www.mstn.govt.nz/,https://mstn.govt.nz/fix-it-form/,2022-10-17,,161 Queen Street,Masterton,5810,New Zealand,,PO Box 444,Masterton,5840,New Zealand,District Council,
matamata-piako-district-council,Matamata-Piako District Council,,0800746467,+6478840060,,http://www.mpdc.govt.nz/,http://www.mpdc.govt.nz/our-council/contact-us,2022-10-14,,35 Kenrick Street,Te Aroha,3320,New Zealand,,PO Box 266,Te Aroha,3342,New Zealand,District Council,
medsafe,Medsafe,,+6448196800,,askmedsafe@moh.govt.nz,http://www.medsafe.govt.nz,http://www.medsafe.govt.nz/other/contact.asp,2020-06-12,,20 Aitken Street,Wellington,6011,New Zealand,,PO Box 5013,Wellington,6145,New Zealand,Public Service,
mental-health-and-wellbeing-commission,Mental Health and Wellbeing Commission,,,,kiaora@mhwc.govt.nz,https://www.mhwc.govt.nz/,,2021-07-07,,,,,,,DX Box SP22502,Wellington,,,Crown entities,
mercury-nz-limited,Mercury NZ Limited,,,093088200,service@mercury.co.nz,https://www.mercury.co.nz/,https://www.mercury.co.nz/help/contact-us.aspx,2021-06-24,,33 Broadway,Auckland,1142,New Zealand,,P O Box 90399,Auckland,1142,New Zealand,Mixed ownership model companies,
meridian-energy-limited,Meridian Energy Limited,,0800496496,+6448031824,info@meridianenergy.co.nz,http://www.meridianenergy.co.nz,https://www.meridianenergy.co.nz/your-home/contact-us-for-home,2017-10-13,,33 Customhouse Quay,Wellington,6011,New Zealand,,PO Box 10840,Wellington,6143,New Zealand,Mixed ownership model companies,
metservice,MetService,Te Ratonga Tirorangi,,+6444700700,enquiries@metservice.com,http://www.metservice.com,http://about.metservice.com/contact,2020-07-29,,"Level 2, 110 Featherston Street",Wellington,6012,New Zealand,,PO Box 722,Wellington,6140,New Zealand,State-owned enterprises,
ministry-for-culture-and-heritage,Ministry for Culture and Heritage,Manatū Taonga,,+6444994229,info@mch.govt.nz,http://www.mch.govt.nz,https://www.mch.govt.nz/about-us/contact-us,2025-01-24,,131-135 Lambton Quay,Wellington,6011,New Zealand,,PO Box 5364,Wellington,6140,,Public Service,
ministry-for-ethnic-communities,Ministry for Ethnic Communities,Te Tari Mātāwaka,0800656656,,info@ethniccommunities.govt.nz,https://www.ethniccommunities.govt.nz/,https://www.ethniccommunities.govt.nz/contact-us/,2021-07-09,,,,,,,,,,,Public Service,
ministry-for-pacific-peoples,Ministry for Pacific Peoples,Te Manatū mō Ngā Iwi o Te Moana-nui-a-Kiwa,,+6444734493,contact@mpp.govt.nz,https://www.mpp.govt.nz/,https://www.mpp.govt.nz/contact-us/,2020-08-17,,101-103 The Terrace,Wellington,6140,New Zealand,,PO Box 833,Wellington,6140,,Public Service,
ministry-for-primary-industries,Ministry for Primary Industries,Manatū Ahu Matua,0800008333,+6448940100,info@mpi.govt.nz,http://www.mpi.govt.nz,http://www.mpi.govt.nz/contact-us/,2021-04-09,,34-38 Bowen Street,Wellington,6011,New Zealand,,PO Box 2526,Wellington,6140,New Zealand,Public Service,
ministry-for-the-environment,Ministry for the Environment,Manatū Mō Te Taiao,0800499700,+6444397400,info@mfe.govt.nz,http://www.mfe.govt.nz,http://www.mfe.govt.nz/contact/,2020-07-29,,23  Kate Sheppard Place,Wellington,6011,New Zealand,,PO Box 10362,Wellington,6143,New Zealand,Public Service,
ministry-for-women,Ministry for Women,Manatū Wāhine,,+6449157112,info@women.govt.nz,https://women.govt.nz/,https://women.govt.nz/contact-us,2020-07-29,,22 The Terrace,Wellington,6011,New Zealand,,"PO Box 10 049  Level 9, Plan IT House  22 The Terrace",Wellington,6011,New Zealand,Public Service,
ministry-of-business-innovation-and-employment,"Ministry of Business, Innovation and Employment",Hikina Whakatutuki,,+6449011499,info@mbie.govt.nz,http://www.mbie.govt.nz,https://www.mbie.govt.nz/about/contact-us/,2021-04-09,,15 Stout Street,Wellington,6011,New Zealand,,PO Box 1473,Wellington,6140,New Zealand,Public Service,
ministry-of-defence,Ministry of Defence,Manatū Kaupapa Waonga,,+6444960999,info@defence.govt.nz,http://www.defence.govt.nz,http://www.defence.govt.nz/contact-us.html,2022-08-12,,34 Bowen Street,Wellington,6011,New Zealand,,PO Box 12703  Molesworth Street,Wellington,6144,New Zealand,Public Service,
ministry-of-education,Ministry of Education,Te Tāhuhu o Te Mātauranga,,+6444638000,enquiries.national@education.govt.nz,http://www.education.govt.nz,https://www.education.govt.nz/our-work/contact-us/,2021-10-20,,1 The Terrace,Wellington,6011,,,PO Box 1666  Wellington 6140,,,New Zealand,Public Service,
ministry-of-foreign-affairs-and-trade,Ministry of Foreign Affairs and Trade,Manatū Aorere,,+6444398000,,http://www.mfat.govt.nz,https://www.mfat.govt.nz/en/about-us/contact-us/,2021-04-09,,195 Lambton Quay,Wellington,6011,New Zealand,,Private Bag 18-901,Wellington,6160,New Zealand,Public Service,
ministry-of-health-manatu-hauora,Ministry of Health,Manatū Hauora,,+6444962000,info@health.govt.nz,http://www.health.govt.nz/,http://www.health.govt.nz/about-ministry/contact-us,2024-08-12,,133 Molesworth Street,Wellington,6011,,,PO Box 5013,Wellington,6140,,Public Service,
ministry-of-housing-and-urban-development,Ministry of Housing and Urban Development,,,,info@hud.govt.nz,https://www.hud.govt.nz/,,2021-07-07,,,,,,,PO Box 82,Wellington,6140,,Public Service,
ministry-of-justice,Ministry of Justice,Tāhū o te Ture,,+6449188800,contactus@justice.govt.nz,http://www.justice.govt.nz/,http://www.justice.govt.nz/contact-us,2024-05-08,,19  Aitken Street,Wellington,6011,New Zealand,,National Office  Ministry of Justice,Wellington,,,Public Service,
ministry-of-social-development,Ministry of Social Development,Te Manatū Whakahiato Ora,,+6449163300,information@msd.govt.nz,http://www.msd.govt.nz,http://www.msd.govt.nz/about-msd-and-our-work/contact-us/index.html,2024-11-07,,56 The Terrace,Wellington,6011,New Zealand,,PO Box 1556,Wellington,6140,,Public Service,
ministry-of-transport,Ministry of Transport,Te Manatū Waka,,+6444399000,info@transport.govt.nz,http://www.transport.govt.nz,http://www.transport.govt.nz/about/contactus/,2024-05-21,,318 Lambton Quay,Wellington,6011,New Zealand,,PO Box 3175,Wellington,6140,New Zealand,Public Service,
ministry-of-youth-development,Ministry of Youth Development,Te Manatū Whakahiato Taiohi,0508367693,+6449163300,mydinfo@myd.govt.nz,http://www.myd.govt.nz,http://www.myd.govt.nz/about-myd/contact-us/index.html,2016-10-31,,56 The Terrace,Wellington,6011,New Zealand,,PO Box 1556,Wellington,6140,New Zealand,Public Service,ministry-of-social-development
motor-vehicle-traders-register,Motor Vehicle Traders Register,,0508668678,+6439622704,,http://www.motortraders.med.govt.nz/,http://www.motortraders.med.govt.nz/cms/customer-support/contact-us,2016-10-31,,15 Stout Street,Wellington,6011,New Zealand,,PO Box 10-729,Wellington,6143,,Public Service,ministry-of-business-innovation-and-employment
museum-of-new-zealand-te-papa-tongarewa,Museum of New Zealand Te Papa Tongarewa,Te Papa Tongarewa,,+6443817000,enquiries@tepapa.govt.nz,http://www.tepapa.govt.nz,https://www.tepapa.govt.nz/about/contact-us,2020-08-17,,55 Cable Street,Wellington,6011,New Zealand,,PO Box 467,Wellington,6140,New Zealand,Autonomous crown entities,
napier-city-council,Napier City Council,,08004627437,+6468357579,info@napier.govt.nz,http://www.napier.govt.nz,http://www.napier.govt.nz/our-council/about/contact-us/,2022-10-13,,215 Hastings Street,Napier,4110,New Zealand,,Private Bag 6010,Napier,4142,New Zealand,City Council,
national-advisory-council-on-the-employment-of-women,National Advisory Council on the Employment of Women,"Mana wahine, mana mahi",,+6449157112,info@women.govt.nz,https://women.govt.nz/nacew/about-nacew,https://women.govt.nz/nacew/contact,2020-03-23,,22 The Terrace,Wellington,,New Zealand,,PO Box 10 049,Wellington,6143,New Zealand,Public Service,
national-cyber-security-centre,National Cyber Security Centre,,,,info@ncsc.govt.nz,https://www.ncsc.govt.nz/,https://www.ncsc.govt.nz/about-us/contact-us,2024-10-11,,,,,,,PO Box 12209,Wellington,6144,,Public Service,government-communications-security-bureau
national-emergency-management-agency,National Emergency Management Agency,NEMA,,+6448305100,emergency.management@nema.govt.nz,http://www.civildefence.govt.nz,http://www.civildefence.govt.nz/contact-us/,2020-08-17,,70-84 Lambton Quay,Welington,6011,,,PO Box 5010,Wellington,6145,New Zealand,Public Service,
national-library-of-new-zealand,National Library of New Zealand,Te Puna Mātauranga o Aotearoa,0800474300,+6444743000,information@natlib.govt.nz,http://natlib.govt.nz/,http://www.natlib.govt.nz/about-this-site/contact-us,2020-07-30,,Corner of Molesworth and Aitken Streets,Wellington,6140,New Zealand,,PO Box 1467,Wellington,6140,New Zealand,Public Service,department-of-internal-affairs
national-pacific-radio-trust,National Pacific Radio Trust,,,093616656,info@pmn.co.nz,https://pacificmedianetwork.com/,,2021-08-24,,2 Osterley Way,Auckland,2104,,,PO Box 97 601,Auckland,2241,,Trusts,
national-screening-unit,National Screening Unit,,,+6495809000,screening@moh.govt.nz,http://www.nsu.govt.nz/,http://www.nsu.govt.nz/about/2220.aspx,2021-08-25,,650 Great South Road,Auckland,,New Zealand,,Private Bag 92522,Auckland,,New Zealand,Public Service,
natural-hazards-commission,Natural Hazards Commission (NHC),,0800326243,+6449786400,info@naturalhazards.govt.nz,https://www.naturalhazards.govt.nz/,https://www.naturalhazards.govt.nz/contact-us/,2020-07-29,,,,,,,PO Box 311,Wellington,6140,New Zealand,Crown agents,
nelson-city-council,Nelson City Council,Te Kaunihera o Whakatū,,+6435460200,enquiry@ncc.govt.nz,http://www.nelson.govt.nz ,http://nelson.govt.nz/footer-elements/contact/,2022-10-14,,110 Trafalgar Street,Nelson,7040,New Zealand,,Po Box 645,Nelson,7040,New Zealand,City Council,
nelson-marlborough-institute-of-technology,Nelson-Marlborough Institute of Technology,Te Whare Wānanga o Te Tau Ihu o Te Waka a Maui,0800422733,+6435469175,info@nmit.ac.nz,http://www.nmit.ac.nz/,http://www.nmit.ac.nz/contactus/,2020-08-17,,322 Hardy Street,Nelson,7010,New Zealand,,Private Bag 19  ,Nelson,7042,New Zealand,Polytechnics/Institutes of technology,
nelsonmarlborough-fish-and-game-council,Nelson / Marlborough Fish and Game Council,,,+6435446382,nelsonmarlborough@fishandgame.org.nz,https://fishandgame.org.nz/nelson/,https://fishandgame.org.nz/nelson/,2020-07-30,,66-74  Champion Road,Nelson,7020,New Zealand,,PO Box 2173  ,Nelson,7041,New Zealand,Regional,new-zealand-fish-and-game-council
network-for-learning-limited,Network for Learning Limited (N4L),,0800532764,,info@n4l.co.nz,https://www.n4l.co.nz/,,2020-06-08,,8 Tangihua Street,Auckland,1010,,,PO Box 37 118,Auckland,1151,,Public Finance Act Schedule 4a companies,
new-plymouth-district-council,New Plymouth District Council,,,+6467596060,enquiries@npdc.govt.nz,http://www.newplymouthnz.com/,https://www.newplymouthnz.com/Council/About-the-Council/Contact-Us,2022-10-13,,84 Liardet Street,New Plymouth,4310,New Zealand,,Private Bag 2025,New Plymouth,4342,New Zealand,District Council,
new-zealand-aid-programme,New Zealand Aid Programme,,,+6444398000,aidcommunications@mfat.govt.nz,https://www.mfat.govt.nz/en/aid-and-development/,https://www.mfat.govt.nz/en/about-us/contact-us/,2022-01-10,,195 Lambton Quay,Wellington,,New Zealand,,Private Bag 18901,Wellington,,New Zealand,Public Service,ministry-of-foreign-affairs-and-trade
new-zealand-antarctic-institute,Antarctica New Zealand,,,+6433580200,Comms.Team@antarcticanz.govt.nz,http://www.antarcticanz.govt.nz/,http://antarcticanz.govt.nz/contact-us,2020-07-30,,38 Orchard Road,Christchurch,8053,New Zealand,,Private Bag 4745,Christchurch,8140,New Zealand,Crown agents,
new-zealand-army,New Zealand Army,Ngati Tumatauenga,,+6444960999,,http://www.army.mil.nz,http://www.army.mil.nz/contact-us/default.htm,2016-10-31,,2-12 Aitken Street,Wellington,,New Zealand,,Private Bag 39997,Wellington,,New Zealand,Non-Public Service departments,new-zealand-defence-force
new-zealand-blood-service,New Zealand Blood Service,Te Ratonga Todo O Aotearoa,0800448325,+6495235744,donors.national@nzblood.co.nz,http://www.nzblood.co.nz/,http://www.nzblood.co.nz/contact-us/,2020-08-17,,11 Great South Road,Auckland,1051,New Zealand,,Private Bag 92-071  Victoria Street West,Auckland,1142,New Zealand,Crown agents,
new-zealand-council-for-educational-research,New Zealand Council for Educational Research,,,(04)3847939,info@nzcer.org.nz,https://www.nzcer.org.nz/,https://www.nzcer.org.nz/contact-us,2021-07-07,,178-182 Willis Street,Wellington,6140,,,PO Box 3237,Wellington,6140,,Other (bodies corporate),
new-zealand-customs-service,New Zealand Customs Service,Te Mana  Ārai o Aotearoa,0800428786,+6449014500,feedback@customs.govt.nz,https://www.customs.govt.nz,https://www.customs.govt.nz/contact-us/,2021-10-20,,1 Hinemoa Street,Wellington,,New Zealand,,PO Box 2218,Wellington,6140,New Zealand,Public Service,
new-zealand-debt-management-office,New Zealand Debt Management Office,,,+6444722733,info@nzdmo.govt.nz,http://www.nzdmo.govt.nz/,https://www.nzdmo.govt.nz/about-us/contact-us,2016-10-31,,1 The Terrace,Wellington,,New Zealand,,PO Box 3724,Wellington,6140,New Zealand,Public Service,the-treasury
new-zealand-defence-force,New Zealand Defence Force,Te Ope Kātua o Aotearoa,,+6444960999,,http://www.nzdf.mil.nz,https://www.nzdf.mil.nz/nzdf/contact-us/,2022-08-12,,34 Bowen Street,Wellington,6011,New Zealand,,PO Box 39997  Wellington Mail Centre,Lower Hutt,5045,New Zealand,Non-Public Service departments,
new-zealand-export-credit-office,New Zealand Export Credit Office,,,+6449176060,info@nzeco.govt.nz,http://www.nzeco.govt.nz/,http://www.nzeco.govt.nz/contactus,2020-09-28,,1 The Terrace,Wellington,6011,New Zealand,,PO Box 3724,Wellington,6140,New Zealand,Public Service,the-treasury
new-zealand-film-commission,New Zealand Film Commission,Te Tumu Whakaata Taonga,0800659754,+6443827680,info@nzfilm.co.nz,http://www.nzfilm.co.nz/,http://www.nzfilm.co.nz/about-us/contact-us,2020-07-30,,119 Ghuznee St,Wellington,,,,PO Box 11 546,Wellington,6142,New Zealand,Autonomous crown entities,
new-zealand-fish-and-game-council,New Zealand Fish and Game Council,,,+6444994767,nzcouncil@fishandgame.org.nz,http://www.fishandgame.org.nz/,http://www.fishandgame.org.nz/contact-us,2020-07-30,,78 Victoria Street,Wellington,6011,New Zealand,,PO Box 25-055,Wellington,6146,New Zealand,Fish and game councils,
new-zealand-food-innovation-network,New Zealand Food Innovation Network (NZFIN),Foodbowl,0508NZFOOD,,reception@foodinnovationnetwork.co.nz,https://foodinnovationnetwork.co.nz/,https://foodinnovationnetwork.co.nz/contact-us,2021-11-01,,,,,,,,,,,Crown entity subsidiaries,
new-zealand-game-bird-habitat-trust-board,New Zealand Game Bird Habitat Trust Board,,,+6444994767,NZCouncil@fishandgame.org.nz,http://www.fishandgame.org.nz/new-zealand-game-bird-habitat-trust,http://www.fishandgame.org.nz/contact-us,2020-07-30,,2 Jarden Mile,Wellington,,New Zealand,,PO Box 13-141,Wellington,6440,New Zealand,Trusts,
new-zealand-geographic-board,New Zealand Geographic Board,Ngā Pou Taunaha o Aotearoa,0800665463,+6444600110,customersupport@linz.govt.nz,http://www.linz.govt.nz/placenames/about-geographic-board,http://www.linz.govt.nz/contact-us,2016-10-31,,155 The Terrace,Wellington,,New Zealand,,PO Box 5501,Wellington,6145,New Zealand,Public Service,land-information-new-zealand
new-zealand-government-property-corporation,New Zealand Government Property Corporation,,,+6444722733,,,https://www.treasury.govt.nz/contact-us,2021-12-22,,1 The Terrace,Wellington,6011,,,PO Box 3724,Wellington,6140,,Public Finance Act Schedule 4 organisations,the-treasury
new-zealand-green-investment-finance-limited,New Zealand Green Investment Finance Limited (NZGIF),,,,info@nzgif.co.nz,,,2020-07-30,,,,,,,PO Box 1054,Wellington,6140,,Public Finance Act Schedule 4a companies,
new-zealand-lotteries-commission,New Zealand Lotteries Commission,,,+6493563800,info@lottonz.co.nz,,http://www.nzlotteries.co.nz/wps/wcm/myconnect/lotteries2/nzlotteries/Global/ContactUs/NZLotteriesContacts/,2020-07-30,,73 Remuera Road,Auckland,1050,New Zealand,,PO Box 8929,Auckland,1150,New Zealand,Autonomous crown entities,
new-zealand-lottery-grants-board,New Zealand Lottery Grants Board,Te Puna Tahua,0800824824,,community.matters@dia.govt.nz,http://www.communitymatters.govt.nz/,http://www.communitymatters.govt.nz/ask-us/view/854?t=1836_3148,2020-07-30,,46 Waring Taylor Street,Wellington,6011,New Zealand,,PO Box 805,Wellington,6140,New Zealand,Other (unincorporated),
new-zealand-parole-board,New Zealand Parole Board (NZPB),,0800727653,+6444958400,info@paroleboard.govt.nz,http://www.paroleboard.govt.nz/,https://www.paroleboard.govt.nz/contact_us.html,2021-08-25,,,,,,,PO Box 939,Wellington,6140,New Zealand,Statutory entities,
new-zealand-passport-office,Passports office,Uruwhenua Aotearoa,0800225050,+6444620650,,http://www.passports.govt.nz/,http://www.passports.govt.nz/Contact-the-Passport-office---in-New-Zealand,2024-03-08,,,,,,,,,,,Public Service,department-of-internal-affairs
new-zealand-petroleum-and-minerals,New Zealand Petroleum & Minerals,,0508263782,+6439626179,nzpam@mbie.govt.nz,http://www.nzpam.govt.nz/,https://www.nzpam.govt.nz/about/contact-us/,2020-04-15,,15 Stout Street,Wellington,6011,New Zealand,,PO Box 1473,Wellington,6140,New Zealand,Public Service,ministry-of-business-innovation-and-employment
new-zealand-police,New Zealand Police,Nga Pirihimana O Aotearoa,,+6444749499,information@police.govt.nz,http://www.police.govt.nz/,http://www.police.govt.nz/contact-us,2021-04-09,,180 Molesworth Street,Wellington,6011,,,PO Box 3017,Wellington,6011,New Zealand,Non-Public Service departments,
new-zealand-post-limited,New Zealand Post Limited,,0800501501,+6493679710,custhelp@nzpost.co.nz,http://www.nzpost.co.nz,http://www.nzpost.co.nz/contact-support,2020-11-23,,7 Waterloo Quay,Wellington,5045,New Zealand,,PO Box 39100,Lower Hutt,5045,New Zealand,State-owned enterprises,
new-zealand-productivity-commission,New Zealand Productivity Commission,Te Kōmihana Whai Hua o Aotearoa,,+6449035150,info@productivity.govt.nz,http://www.productivity.govt.nz/,http://www.productivity.govt.nz/contact,2020-07-30,,141  The Terrace,Wellington,6143,New Zealand,,PO Box 8036  ,Wellington,6143,New Zealand,Independent Crown entities,
new-zealand-qualifications-authority,New Zealand Qualifications Authority,Mana Tohu Mātauranga o Aotearoa,0800697296,+6444633000,,http://www.nzqa.govt.nz/,http://www.nzqa.govt.nz/about-us/contact-us/,2020-07-30,,125 The Terrace,Wellington,6011,New Zealand,,PO Box 160,Wellington,6140,New Zealand,Crown agents,
new-zealand-railways-corporation,New Zealand Railways Corporation (NZRC),,0800801070,,,https://treasury.govt.nz/information-and-services/commercial-portfolio-and-advice/commercial-portfolio/new-zealand-railways-corporation,,2021-07-08,,2 Bunny Street,Wellington,6140,,,PO Box 593,Wellington,6140,,State-owned enterprises,kiwirail
new-zealand-security-intelligence-service,New Zealand Security Intelligence Service,Te Pā Whakamarumaru,0800747224,+6444726170,,http://www.nzsis.govt.nz/,http://www.nzsis.govt.nz/contact/,2020-07-30,,1-15 Pipitea Street,Wellington,6144,New Zealand,,PO Box 900,Wellington,6140,New Zealand,Non-Public Service departments,
new-zealand-symphony-orchestra,New Zealand Symphony Orchestra,Te Tira Pūoro o Aotearoa,0800479674,+6448013890,info@nzso.co.nz,http://www.nzso.co.nz,http://www.nzso.co.nz/contact/,2020-07-30,,13-27 Manners Street,Wellington,6011,New Zealand,,PO Box 6640,Wellington,6141,New Zealand,Autonomous crown entities,
new-zealand-tourism-board,New Zealand Tourism Board,Manaakitanga Aotearoa,,+6444628000,,http://www.tourismnewzealand.com/,http://www.tourismnewzealand.com/about-us/contact-us/,2023-12-20,,1 Willis Street,Wellington,6011,New Zealand,,PO Box 95,Wellington,6140,New Zealand,Crown agents,
new-zealand-trade-and-enterprise,New Zealand Trade and Enterprise (NZTE),Te Taurapa Tūhono,0800555888,+6448168100,exporthelp@nzte.govt.nz,http://www.nzte.govt.nz,https://www.nzte.govt.nz/form/contact,2021-11-09,,100 Willis St,Wellington,6011,New Zealand,,PO Box 2878,Wellington,6140,,Crown agents,
new-zealand-transport-agency,New Zealand Transport Agency,Waka Kotahi,,+6448945400,info@nzta.govt.nz,http://nzta.govt.nz,http://nzta.govt.nz/about/contact/index.html,2021-04-09,,44 Bowen Street,Wellington,6011,New Zealand,,Private Bag 6995,Wellington,6141,,Crown agents,
ngai-tahu-ancillary-claims-trust,Ngāi Tahu Ancillary Claims Trust,,,+6439624900,mlctewaipounamu@justice.govt.nz,http://ngaitahu.iwi.nz/ngai-tahu/the-settlement/settlement-offer/non-tribal-redress/,,2020-07-30,,76 Peterborough Street,Christchurch,,New Zealand,,PO Box 2200,Christchurch,,New Zealand,Trusts,
niwa,National Institute of Water and Atmospheric Research Limited,Taihoro Nukurangi,0800746464,+6493752050,enquiries@niwa.co.nz,http://www.niwa.co.nz/,http://www.niwa.co.nz/contact-us,2020-07-30,,41 Market Place,Auckland,,,,Private Bag 99940,Auckland,1149,New Zealand,Crown Research Institutes,
north-canterbury-fish-and-game-council,North Canterbury Fish and Game Council,,0800347426,+6433669191,northcanterbury@fishandgame.org.nz,https://fishandgame.org.nz/northcanterbury/,https://fishandgame.org.nz/northcanterbury,2020-07-30,,595 Johns Road,Christchurch,7400,New Zealand,,PO Box 50,Christchurch,7641,New Zealand,Regional,new-zealand-fish-and-game-council
northland-fish-and-game-council,Northland Fish and Game Council,,,+6494384135,northland@fishandgame.org.nz,https://fishandgame.org.nz/northland/,https://fishandgame.org.nz/northland/,2020-07-30,,7-11  Nell Place,Whangarei,0148,New Zealand,,PO Box 25003  ,Whangarei,0148,New Zealand,Regional,new-zealand-fish-and-game-council
northland-regional-council,Northland Regional Council,Te Kaunihera a-Rohe o Te Tai Tokerau,0800002004,+6494701200,info@nrc.govt.nz,http://www.nrc.govt.nz/,http://www.nrc.govt.nz/Contact/,2022-10-13,,36 Water Street,Whāngārei,,,,Private Bag 9021,Whāngārei,0148,New Zealand,Regional Council,
northtec,NorthTec,Tai Tokerau Wānanga,0800808856,+6494703555,enquiries@northtec.ac.nz,http://www.northtec.ac.nz/,https://www.northtec.ac.nz/contact,2020-06-15,,51 Raumanga Valley Road,Whangarei,0110,New Zealand,,Private Bag 9019,Whangarei,0148,New Zealand,Polytechnics/Institutes of technology,te-pukenga
nz-growth-capital-partners-limited,NZ Growth Capital Partners (NZGCP),,,,info@nzgcp.co.nz,https://www.nzgcp.co.nz/,https://www.nzgcp.co.nz/contact-us/,2020-09-10,,5 Willeston Street,Wellington,6011,New Zealand,,PO Box 5177,Wellington,6140,New Zealand,Other companies,
nz-on-air,NZ On Air,Irirangi Te Motu,,+6443829524,info@nzonair.govt.nz,http://www.nzonair.govt.nz/,http://www.nzonair.govt.nz/#contact,2021-02-18,,119 Ghuznee Street,Wellington,,New Zealand,,PO Box 9744,Wellington,6141,New Zealand,Autonomous crown entities,
office-for-seniors,Office for Seniors,Te Tari Kaumātua,,,ofs@msd.govt.nz,https://officeforseniors.govt.nz/,https://officeforseniors.govt.nz/about-us/contact-us/,2021-10-20,,56 The Terrace,Wellington,6011,New Zealand,,PO Box 1556,Wellington,6140,New Zealand,Public Service,ministry-of-social-development
office-of-film-and-literature-classification,Office of Film and Literature Classification,"Te Tari Whakarōpū Tukuata, Tuhituhinga",0508236767,+6444716770,info@classificationoffice.govt.nz,https://www.classificationoffice.govt.nz/,https://www.classificationoffice.govt.nz/contact/,2020-07-30,,88 The Terrace,Wellington,6011,New Zealand,,PO Box 1999,Wellington,6140,New Zealand,Independent Crown entities,
office-of-human-rights-proceedings,Office of Human Rights Proceedings,,,+6493758623,ohrp@ohrp.org.nz,http://www.hrc.co.nz/ohrp/,,2019-09-12,,41 Shortland Street,Auckland,1010,New Zealand,,PO Box 6751  Wellesley Street,Auckland,1141,New Zealand,Independent Crown entities,human-rights-commission
office-of-the-auditor-general,Office of the Auditor-General,Te Mana Arotake,,+6449171500,enquiry@oag.parliament.nz,https://oag.parliament.nz/,https://oag.parliament.nz/contact-us,2020-07-30,,100 Molesworth Street,Wellington,6011,New Zealand,,PO Box 3928,Wellington,6140,New Zealand,Offices of Parliament,controller-and-auditor-general
office-of-the-clerk-of-the-house-of-representatives,Office of the Clerk of the House of Representatives,Te Tari o te Manahautū o te Whare Māngai,,+6448179445,clerk@parliament.govt.nz,http://www.parliament.nz/en-nz/,https://www.parliament.nz/en/footer/about-us/office-of-the-clerk/about/who-we-are/,2020-07-30,,Molesworth Street,Wellington,,New Zealand,,Private Bag 18041,Wellington,6160,New Zealand,Non-Public Service departments,
office-of-the-ombudsmen,Office of the Ombudsman,Tari o te Kaitiaki Mana Tangata,0800802602,+6444739533,info@ombudsman.parliament.nz,http://www.ombudsman.parliament.nz/,http://www.ombudsman.parliament.nz/contact-us,2020-07-30,,70 The Terrace,Wellington,6011,New Zealand,,PO Box 10152  ,Wellington,6143,New Zealand,Offices of Parliament,
open-polytechnic-of-new-zealand,Open Polytechnic of New Zealand,Kuratini Tuwhera,0508650200,+6449135300,customerservices@openpolytechnic.ac.nz,http://www.openpolytechnic.ac.nz/,http://www.openpolytechnic.ac.nz/contact-us,2020-07-30,,3 Cleary Street,Lower Hutt,5011,New Zealand,,Private Bag 31914  ,Lower Hutt,5040,New Zealand,Polytechnics/Institutes of technology,
opotiki-district-council,Opotiki District Council,,,+6473153030,info@odc.govt.nz,http://www.odc.govt.nz/,https://www.odc.govt.nz/our-council/contact-us,2022-10-13,,108 St John Street,Opotiki,,New Zealand,,PO Box 44,Opotiki,3162,New Zealand,District Council,
oranga-tamariki-ministry-for-children,Oranga Tamariki-Ministry for Children,,0508326459,+6449170000,contact@ot.govt.nz,https://www.orangatamariki.govt.nz/,https://www.orangatamariki.govt.nz/contact-us,2022-01-14,,56 The Terrace,Wellington,6011,New Zealand,,PO Box 546,Wellington,6140,New Zealand,Public Service,
organised-and-financial-crime-agency-new-zealand,National Organised Crime Group,,,,,https://www.police.govt.nz/careers/police-groups/national-organised-crime-group,,2021-01-26,,,,,,,PO Box 3017,Wellington,6140,New Zealand,Non-Public Service departments,new-zealand-police
otago-fish-and-game-council,Otago Fish and Game Council,,,+6434779076,otago@fish-game.org.nz,https://fishandgame.org.nz/otago/,https://fishandgame.org.nz/otago/,2020-07-30,,Cnr Hanover and Harrow Streets,Dunedin,9016,New Zealand,,PO Box 76,Dunedin,9054,New Zealand,Regional,new-zealand-fish-and-game-council
otago-polytechnic,Otago Polytechnic,Te Kura Matatini ki Otago,0800762786,+6434773014,info@op.ac.nz,http://www.op.ac.nz/,,2020-07-30,,Forth Street,Dunedin,9054,New Zealand,,Private Bag 1910,Dunedin,9054,New Zealand,Polytechnics/Institutes of technology,
otago-regional-council,Otago Regional Council,,0800474082,+6434740827,customerservices@orc.govt.nz,http://www.orc.govt.nz/,https://www.orc.govt.nz/contact-us,2022-10-31,,144 Rattray Street,Dunedin,,New Zealand,,Private Bag 1954,Dunedin,9054,New Zealand,Regional Council,
otakaro-limited,Ōtākaro Limited,,,033576300,info@otakaroltd.co.nz,,,2020-08-10,,62 Worcester Boulevard,Christchurch,8013,,,PO Box 73,Christchurch,8140,,Public Finance Act Schedule 4a companies,
otorohanga-district-council,Otorohanga District Council,,,+6478734000,info@otodc.govt.nz,http://www.otodc.govt.nz/,https://www.otodc.govt.nz/council/contact-us,2022-10-13,,17 Maniapoto Street,Otorohanga,3900,New Zealand,,PO Box 11,Otorohanga,3940,New Zealand,District Council,
overseas-investment-office,Overseas Investment Office,,,+6479745595,oio@linz.govt.nz,http://www.linz.govt.nz/overseas-investment/,http://www.linz.govt.nz/overseas-investment/about-oio,2021-07-08,,155 The Terrace,Wellington,,New Zealand,,PO Box 5501,Wellington,,New Zealand,Public Service,land-information-new-zealand
pacific-business-trust,Pacific Business Trust,,08002877526,,info@pacificbusiness.co.nz,https://www.pacificbusiness.co.nz/,https://www.pacificbusiness.co.nz/get-in-touch/,2020-07-30,,101C Station Road,Auckland,1061,New Zealand,,PO Box 11229,Auckland,1642,New Zealand,Trusts,
pacific-co-operation-foundation,Pacific Cooperation Foundation,,,+6499691494,info@pcf.org.nz,http://www.pcf.org.nz,http://pcf.org.nz/contact/,2020-07-30,,139 Quay Street,Auckland,,New Zealand,,PO Box 105440,Auckland,1143,New Zealand,Trusts,
palmerston-north-city-council,Palmerston North City Council,,,+6463568199,info@pncc.govt.nz,http://www.pncc.govt.nz,http://www.pncc.govt.nz/siteinfo/contact-us/,2022-10-13,,32 The Square,Palmerston North,4410,New Zealand,,Private Bag 11034,Palmerston North,4442,New Zealand,City Council,
parliamentary-commissioner-environment,Parliamentary Commissioner for the Environment,Te Kaitiaki Taiao a Te Whare Pāremata,,+6444711669,pce@pce.parliament.nz,http://www.pce.parliament.nz/,http://www.pce.parliament.nz/about-us/contact-us/,2020-08-17,,147 Lambton Quay,Wellington,6011,,,PO Box 10-241,Wellington,6143,New Zealand,Offices of Parliament,
parliamentary-counsel-office,Parliamentary Counsel Office,Te Tari Tohutohu Pāremata,,+6443331000,contact@pco.govt.nz,http://www.pco.parliament.govt.nz/,http://www.pco.parliament.govt.nz/contact-us/,2020-07-30,,2 The Terrace,Wellington,,New Zealand,,PO Box 18 070,Wellington,6160,New Zealand,Non-Public Service departments,
parliamentary-service,Parliamentary Service,Te Ratonga Whare Paremata,080072736282,+6448179999,Parlinfo@parliament.govt.nz,https://www.parliament.nz/en/footer/about-us/parliamentary-service/,https://www.parliament.nz/en/footer/contact-us/,2020-07-30,,Molesworth Street,Wellington,,New Zealand,,Private Bag 18041,Wellington,6160,New Zealand,Non-Public Service departments,
peke-waihanga-artificial-limb-service,Peke Waihanga – Artificial Limb Service,,,+6443859410,info@nzals.govt.nz,http://www.nzals.co.nz/,http://www.nzals.co.nz/,2021-02-03,,142 Featherston Street (entry on Johnston St.),Wellington,,New Zealand,,PO Box 19160,Wellington,6149,New Zealand,Autonomous crown entities,
personal-property-securities-register,Personal Property Securities Register,,0508777746,,info@ppsr.govt.nz,http://www.ppsr.govt.nz/,,2016-10-31,,15 Stout Street,Wellington,6011,New Zealand,,,,,,Public Service,ministry-of-business-innovation-and-employment
pharmaceutical-management-agency,"Pharmaceutical Management Agency, PHARMAC",,0800660050,+6444604990,enquiry@pharmac.govt.nz,http://www.pharmac.govt.nz,http://www.pharmac.health.nz/home/contact/ ,2020-08-17,,40 Mercer Street,Wellington,6011,New Zealand,,PO Box 10254  The Terrace,Wellington,6143,New Zealand,Crown agents,
plant-and-food-research,Plant and Food Research,Rangahau Ahumāra Kai,,+6499257000,,http://www.plantandfood.co.nz/,http://www.plantandfood.co.nz/page/about-us/contact/,2020-08-11,,120 Mt Albert Road,Auckland,1025,New Zealand,,Private Bag 92169,Auckland,1142,New Zealand,Crown Research Institutes,
plumbers-gasfitters-and-drainlayers-board,"Plumbers, Gasfitters and Drainlayers Board",,0800743262,+6444942970,office@pgdb.co.nz,http://www.pgdb.co.nz/,http://www.pgdb.co.nz/about/contact.html,2016-10-31,,45 Johnston Street,Wellington,,New Zealand,,PO Box 10655,Wellington,6140,New Zealand,,
porirua-city-council,Porirua City Council,,,+6442375089,enquiries@poriruacity.govt.nz,https://poriruacity.govt.nz/,https://poriruacity.govt.nz/contact/,2022-10-13,,18 Hartham Place North,Porirua,5022,New Zealand,,PO Box 50218,Porirua,5240,New Zealand,City Council,
predator-free-2050,Predator Free 2050,,,,submissions@pf2050.co.nz,https://pf2050.co.nz/,,2022-12-07,,,,,,,PO Box 25595,Wellington,6146,,Public Finance Act Schedule 4a companies,
privacy-commissioner,Privacy Commissioner,Te Mana Mātāpono Matatapu,0800803909,+6444747590,enquiries@privacy.org.nz,http://www.privacy.org.nz,http://www.privacy.org.nz/contact-us/,2022-07-26,,215 Lambton Quay,Wellington,6011,New Zealand (visits by appointment only),,PO Box 10094,Wellington,6143,New Zealand,Independent Crown entities,
provincial-growth-fund,Provincial Growth Fund (PGF),,0508743473,,PGF@mbie.govt.nz,https://www.growregions.govt.nz/,https://www.growregions.govt.nz/about-us/contact-us/,2021-07-07,,15 Stout Street,Wellington,6011,,,PO Box 1473,Wellington,6140,,,ministry-of-business-innovation-and-employment
public-service-commission,Te Kawa Mataaho,Public Service Commission,,+6444956600,commission@publicservice.govt.nz,https://www.publicservice.govt.nz/,https://www.publicservice.govt.nz/contact-us/,2020-09-14,,No.2 The Terrace,Wellington,,New Zealand,,PO Box 329,Wellington,6140,New Zealand,Public Service,
public-trust,Public Trust,,0800371471,+6439777956,info@publictrust.co.nz,http://www.publictrust.co.nz/,https://www.publictrust.co.nz/contact-us/,2021-10-20,,151 Queen Street,Auckland,1010,New Zealand,,Private Bag 5902,Wellington,1140,New Zealand,Autonomous crown entities,
qeii-national-trust,Queen Elizabeth II National Trust (QEII),QEII National Trust,,044726626,,https://qeiinationaltrust.org.nz,https://qeiinationaltrust.org.nz/contact/,2021-08-25,,138 The Terrace,Wellington,6140,,,PO Box 3341,Wellington,6140,,Trusts,
queenstown-lakes-district-council,Queenstown-Lakes District Council,,,+6434410499,services@qldc.govt.nz,http://www.qldc.govt.nz/,http://www.qldc.govt.nz/contact/,2022-10-13,,10 Gorge Road,Queenstown,,New Zealand,,Private Bag 50072,Queenstown,9348,New Zealand,District Council,
quotable-value-limited,Quotable Value New Zealand Ltd,,,+6445764630,enquiries@qv.co.nz,https://qvgroup.qv.co.nz/,https://qvgroup.qv.co.nz/contact-us,2020-08-17,,22 Nevis Street,Lower Hutt,5012,New Zealand,,Private Bag 39818,Lower Hutt,5045,New Zealand,State-owned enterprises,
radio-new-zealand-limited,Radio New Zealand Limited,Te Reo Irirangi o Aotearoa,,+6444741999,rnz@radionz.co.nz,http://www.radionz.co.nz/,http://www.radionz.co.nz/about/contact,2020-07-30,,155 The Terrace,Wellington,,New Zealand,,PO Box 123,Wellington,6140,New Zealand,Other companies,
radio-spectrum-management,Radio Spectrum Management,,0508776463,+6439622603,info@rsm.govt.nz,http://www.rsm.govt.nz/,https://www.rsm.govt.nz/about/contact-us/,2020-04-15,,15 Stout Street,Wellington,6011,New Zealand,,PO Box 2847,Wellington,6140,,Public Service,ministry-of-business-innovation-and-employment
rangitikei-district-council,Rangitikei District Council,,0800422522,+6463270099,info@rangitikei.govt.nz,http://www.rangitikei.govt.nz/,https://www.rangitikei.govt.nz/council/about/contact-us,2022-10-14,,46 High Street,Marton,,New Zealand,,Private Bag 1102,Marton,4741,New Zealand,District Council,
real-estate-authority,Real Estate Authority,,08003677322,+6444718930,info@rea.govt.nz,https://www.rea.govt.nz/,https://www.rea.govt.nz/contact-us/,2020-08-17,,3 The Terrace,Wellington,6011,New Zealand,,PO Box 25371,Wellington,6146,,Crown agents,
realme,RealMe®,,0800664774,+6444620674,,https://www.realme.govt.nz/,https://www.realme.govt.nz/contact-us/,2024-07-17,,,,,,,,,,,,department-of-internal-affairs
registrar-of-unions,Registrar of Unions,,,0508762438,,,,2016-10-31,,15 Stout Street,Wellington,6011,New Zealand,,,,,,Public Service,ministry-of-business-innovation-and-employment
remuneration-authority,Remuneration Authority,,,+6444993068,info@remauthority.govt.nz,http://remauthority.govt.nz/,http://remauthority.govt.nz/contact-us/,2021-08-25,,105 The Terrace,Wellington,6140,New Zealand,,PO Box 10 084,Wellington,6143,New Zealand,Statutory entities,
research-and-education-advanced-network-new-zealand,REANNZ,,,+6449131090,info@reannz.co.nz,http://reannz.co.nz/,http://reannz.co.nz/contact-us,2022-01-14,,22 The Terrace,Wellington,6011,New Zealand,,PO Box 3325  ,Wellington,6140,New Zealand,Public Finance Act Schedule 4a companies,
reserve-bank-of-new-zealand,Reserve Bank of New Zealand,,,+6444722029,rbnz-info@rbnz.govt.nz,https://www.rbnz.govt.nz,https://www.rbnz.govt.nz/contact-us,2020-08-05,,2 The Terrace,Wellington,6140,New Zealand,,PO Box 2498,Wellington,6140,New Zealand,State Services,
resolution-services,Resolution Services,,0800209020,,,https://employment.govt.nz/resolving-problems/steps-to-resolve/mediation/what-is-mediation/,https://employment.govt.nz/about/contact-us/,2020-09-28,,15 Stout Street,Wellington,6011,New Zealand,,,,,,Public Service,ministry-of-business-innovation-and-employment
rotorua-lakes-council,Rotorua Lakes Council,Te kaunihera o ngā o Rotorua,,+6473484199,info@rotorualc.nz,https://www.rotorualakescouncil.nz/,https://www.rotorualakescouncil.nz/contact-us,2022-10-18,,1061 Haupapa Street,Rotorua,,New Zealand,,Private Bag 3029,Rotorua,3046,New Zealand,District Council,
royal-new-zealand-airforce,Royal New Zealand Airforce,,,+6444960999,,http://www.airforce.mil.nz/,http://www.airforce.mil.nz/contact-us/,2016-10-31,,2-12 Aitken Street,Wellington,,New Zealand,,Private Bag 39997,Wellington,,New Zealand,Non-Public Service departments,new-zealand-defence-force
royal-new-zealand-navy,Royal New Zealand Navy,Te Taua Moana O Aotearoa,,+6444960999,,http://www.navy.mil.nz/,https://www.nzdf.mil.nz/nzdf/contact-us/?enquiry-type=navy,2021-01-13,,2-12 Aitken Street,Wellington,,New Zealand,,Private Bag 39997,Wellington,,New Zealand,Non-Public Service departments,new-zealand-defence-force
ruapehu-district-council,Ruapehu District Council,,,+6478958188,info@ruapehudc.govt.nz,http://www.ruapehudc.govt.nz,https://www.ruapehudc.govt.nz/our-council/council-contact-information,2022-10-13,,59 - 61 Huia Street,Taumarunui,3920,New Zealand,,Private Bag 1001,Taumarunui,3946,New Zealand,District Council,
scion,Scion,,,+6473435899,enquiries@scionresearch.com,http://www.scionresearch.com/,http://www.scionresearch.com/about-us/about-scion/location-and-contact,2020-07-30,,49 Sala Street,Rotorua,3010,New Zealand,,Private Bag 3020,Rotorua,3046,New Zealand,Crown Research Institutes,
selwyn-district-council,Selwyn District Council,,,+6433472800,admin@selwyn.govt.nz,http://www.selwyn.govt.nz/,https://www.selwyn.govt.nz/your-council/contact-us,2022-10-13,,2 Norman Kirk Drive,Rolleston,7614,New Zealand,,PO Box 90,Rolleston,7643,New Zealand,District Council,
senior-services,Senior Services,,0800552002,+6495839909,seniors@msd.govt.nz,http://www.seniors.msd.govt.nz,https://www.msd.govt.nz/what-we-can-do/seniorcitizens/index.html,2021-07-28,,56 The Terrace,Wellington,6011,New Zealand,,PO Box 5054,Wellington,6145,New Zealand,Public Service,ministry-of-social-development
serious-fraud-office,Serious Fraud Office,Te Tari Hara Taware,0800109800,+6493030121,enquiries@sfo.govt.nz,http://sfo.govt.nz/,http://sfo.govt.nz/contact,2020-07-30,,21 Queen Street,Auckland,1010,New Zealand,,PO Box 7124,Auckland,1141,New Zealand,Public Service,
social-investment-agency,Social Investment Agency (SIA),,,,info@sia.govt.nz,https://sia.govt.nz/,https://sia.govt.nz/about/contact-us,2025-01-30,,117 Lambton Quay,Wellington,6011,,,PO Box 639,Wellington,6140,,Public Service,
social-workers-registration-board,Social Workers Registration Board,Kāhui Whakamana Tauwhiro,0508797269,+6449312650,office@swrb.govt.nz,http://www.swrb.govt.nz,http://www.swrb.govt.nz/contact-us,2020-07-30,,110 Featherston Street,Wellington,6011,New Zealand,,PO Box 3452,Wellington,6140,New Zealand,Crown agents,
south-taranaki-district-council,South Taranaki District Council,,0800111323,+6462780555,contact@stdc.govt.nz,http://www.southtaranaki.com/,https://www.southtaranaki.com/our-council/contact-us/?ed-step=1,2022-10-13,,105 - 111 Albion Street,Hawera,4610,New Zealand,,Private Bag 902,Hawera,4640,New Zealand,District Council,
south-waikato-district-council,South Waikato District Council,,,+6478850340,info@southwaikato.govt.nz,http://www.southwaikato.govt.nz/,https://www.southwaikato.govt.nz/our-council/council-contacts,2022-10-18,,1 - 5 Torphin Crescent,Tokoroa,3420,New Zealand,,Private bag 7,Tokoroa,3444,New Zealand,District Council,
south-wairarapa-district-council,South Wairarapa District Council,,,+6463069611,enquiries@swdc.govt.nz,http://www.swdc.govt.nz/,http://www.swdc.govt.nz/contact,2022-10-14,,19 Kitchener Street,Martinborough,5711,New Zealand,,PO Box 6,Martinborough,5741,New Zealand,District Council,
southern-institute-of-technology,Southern Institute of Technology,Te Whare Wananga O Murihiku,0800403337,+6432112699,info@sit.ac.nz,http://www.sit.ac.nz/,http://www.sit.ac.nz/contact,2024-05-08,,133  Tay Street,Invercargill,9840,New Zealand,,Private Bag 90114,Invercargill,9840,New Zealand,Polytechnics/Institutes of technology,te-pukenga
southern-response-earthquake-services-limited,Southern Response Earthquake Services Limited,Urupare ki te Tonga,0800501525,,claims@southernresponse.co.nz,http://www.southernresponse.co.nz/,http://www.southernresponse.co.nz/contact-us/,2020-07-30,,6 Show Place,Christchurch,,New Zealand,,PO Box 9052,Christchurch,8149,,Public Finance Act Schedule 4a companies,
southland-district-council,Southland District Council,,0800732732,+6432112500,emailsdc@southlanddc.govt.nz,http://www.southlanddc.govt.nz/,http://www.southlanddc.govt.nz/home/contact-us/,2022-10-10,,15 Forth Street,Invercargill,9810,New Zealand,,PO Box 903,Invercargill,9840,New Zealand,District Council,
southland-fish-and-game-council,Southland Fish and Game Council,,,+6432159117,southland@fishandgame.org.nz,https://fishandgame.org.nz/southland/,https://fishandgame.org.nz/southland,2020-07-30,,159 North Road,Invercargill,9810,New Zealand,,PO Box 159,Invercargill,9840,New Zealand,Regional,new-zealand-fish-and-game-council
sport-new-zealand,Sport New Zealand,Ihi Aotearoa,,+6444728058,,https://sportnz.org.nz/,https://sportnz.org.nz/about-us/contact-us/,2020-08-17,,29 Brandon Street,Wellington,6011,New Zealand,,PO Box 2251,Wellington,6140,New Zealand,Crown agents,
standards-new-zealand,Standards New Zealand,Paerewa Aotearoa,0800782632(NZonly),+6439434259(outsideNZ),enquiries@standards.co.nz,http://www.standards.co.nz/,https://www.standards.govt.nz/about/contact/,2021-10-20,,15 Stout Street,Wellington,6011,New Zealand,,PO Box 1473,Wellington,6140,New Zealand,Public Service,ministry-of-business-innovation-and-employment
state-housing-appeals-authority,State Housing Appeals Authority,,0800223022,,,,https://www.building.govt.nz/about-building-performance/contact-us/,2021-10-20,,,,,,,PO Box 50394,Porirua,,New Zealand,Public Service,ministry-of-business-innovation-and-employment
statistics-new-zealand,Stats NZ,Tatauranga Aotearoa,,+6449314600,info@stats.govt.nz,http://www.stats.govt.nz/,https://www.stats.govt.nz/contact-us,2020-07-30,,8 Willis Street,Wellington,6011,,,PO Box 2922,Wellington,6140,,Public Service,
stratford-district-council,Stratford District Council,,,+6467656099,stratforddc@stratford.govt.nz,http://www.stratford.govt.nz/,https://www.stratford.govt.nz/our-council/contact-us,2021-10-20,,61-63 Miranda Street,Stratford,,New Zealand,,PO Box 320,Stratford,4352,New Zealand,District Council,
studylink,StudyLink,Hoto Akoranga,0800889900,+6449173107(callingfromoverseas),,http://www.studylink.govt.nz,http://www.studylink.govt.nz/about-studylink/contact-us/,2020-06-15,,56 The Terrace,Wellington,6011,New Zealand,,StudyLink  PO Box 38610,Wellington,5045,New Zealand,Public Service,ministry-of-social-development
supreme-court-of-new-zealand,Supreme Court of New Zealand,,,+6449188222,supremecourt@justice.govt.nz,https://www.courtsofnz.govt.nz/the-courts/supreme-court/,https://www.courtsofnz.govt.nz/the-courts/supreme-court/contact/,2020-03-23,,85 Lambton Quay,Wellington,6011,New Zealand,,,,,,Public Service,
tai-poutini-polytechnic,Tai Poutini Polytechnic,,0800800411,(03)7699400,info@tpp.ac.nz,https://tpp.ac.nz/,https://tpp.ac.nz/contact/,2021-07-07,,73-87 Tainui Street,Greymouth,7840,,,Private Bag 607,Greymouth,7840,,Polytechnics/Institutes of technology,te-pukenga
tairawhiti-polytechnic,Tairāwhiti Polytechnic,Te Kuratini o Te Tairāwhiti,08002255348,+6468690810,tairawhiti@eit.ac.nz,http://www.eit.ac.nz/campus/tairawhiti/,http://www.eit.ac.nz/contact/,2020-07-30,,290 Palmerston Road,Gisborne,4010,New Zealand,,PO Box 640,Gisborne,4010,New Zealand,Polytechnics/Institutes of technology,eastern-institute-of-technology
takeovers-panel,Takeovers Panel,,,+6448158420,takeovers.panel@takeovers.govt.nz,http://www.takeovers.govt.nz/,http://www.takeovers.govt.nz/footer/contact-us/,2024-05-28,,70 The Terrace,Wellington,6011,New Zealand,,PO Box 1171,Wellington,6140,New Zealand,Independent Crown entities,
tamaki-redevelopment-company,Tāmaki Redevelopment Company,,0800521555,,info@tamakiregeneration.co.nz,,,2022-10-12,,244 Apirana Avenue,Auckland,1072,,,PO Box 18070,Auckland,1743,,Public Finance Act Schedule 4a companies,
taranaki-fish-and-game-council,Taranaki Fish and Game Council,,,+6463454908,taranaki@fishandgame.org.nz,https://fishandgame.org.nz/taranaki/,https://fishandgame.org.nz/taranaki,2020-07-30,,124 Ridgway Street,Wanganui,4500,New Zealand,,PO Box 4152,Wanganui,4541,New Zealand,Regional,new-zealand-fish-and-game-council
taranaki-regional-council,Taranaki Regional Council,,0800736222,+6467657127,info@trc.govt.nz,http://www.trc.govt.nz/,http://www.trc.govt.nz/contact-us/,2022-10-07,,47 Cloten Road,Stratford,4332,New Zealand,,Private Bag 713,Stratford,4352,New Zealand,Regional Council,
tararua-district-council,Tararua District Council,,,+6463744080,info@tararuadc.govt.nz,http://www.tararuadc.govt.nz/,https://www.tararuadc.govt.nz/Home/Contact-Us,2022-10-14,,26 Gordon Street,Dannevirke,,New Zealand,,PO Box 115,Dannevirke,4942,New Zealand,District Council,
tasman-district-council,Tasman District Council,,,+6435438400,info@tasman.govt.nz,http://www.tasman.govt.nz/,http://www.tasman.govt.nz/contact-us/,2022-10-14,,189 Queen Street,Nelson,7050,New Zealand,,Private Bag 4,Nelson,7050,New Zealand,District Council,
taumata-arowai,Taumata Arowai,,,+6448898350,info@taumataarowai.govt.nz,https://www.taumataarowai.govt.nz,https://www.taumataarowai.govt.nz/about/contact-us/,2021-12-22,,,,,,,"Level 2, 10 Brandon Street,  PO Box 628",Wellington,6140,New Zealand,Crown agents,
taupo-district-council,Taupō District Council,,0800275832,+6473760899,info@taupo.govt.nz,http://www.taupodc.govt.nz/,https://www.taupodc.govt.nz/council/contact-us,2020-06-10,,46 Horomatangi Street,Taupo,3330,New Zealand,,Private Bag 2005,Taupo,3352,New Zealand,District Council,
tauranga-city-council,Tauranga City Council,,,+6475777000,info@tauranga.govt.nz,http://www.tauranga.govt.nz/,http://www.tauranga.govt.nz/contact-us.aspx,2022-10-11,,91  Willow Street,Tauranga,3143,New Zealand,,Private Bag 12022,Tauranga,3143,New Zealand,City Council,
te-aho-o-te-kahu,Te Aho o Te Kahu,Cancer Control Agency,,,info@teaho.govt.nz,http://www.teaho.govt.nz/,,2021-11-01,,,,,,,133 Molesworth Street,Wellington,6011,,Public Service,
te-ara-ahunga-ora-retirement-commission,Te Ara Ahunga Ora,Retirement Commission,,+6493560052,office@retirement.govt.nz,https://retirement.govt.nz/,https://retirement.govt.nz/about/contact-us/,2021-10-13,,19 Victoria Street W,Auckland,1010,(main office),,PO Box 106-056,Auckland City,1143,,Autonomous crown entities,
te-kura,Te Kura,Te Aho o Te Kura Pounamu,0800659988,+6444736841,info@tekura.school.nz,http://www.tekura.school.nz/,http://www.tekura.school.nz/contact-us,2021-11-01,,11 Portland Crescent,Wellington,,New Zealand,,Private Bag 39992  Wellington Mail Centre,Lower Hutt,5045,New Zealand,Statutory entities,
te-mangai-paho,Te Māngai Pāho,Te Reo Whakapuaki Irirangi,,+6449150700,info@tmp.govt.nz,http://www.tmp.govt.nz/,http://www.tmp.govt.nz/contact,2020-08-17,,143 Lambton Quay,Wellington,6011,New Zealand,,PO Box 10-004,Wellington,6143,New Zealand,Autonomous crown entities,te-puni-kokiri
te-matawai,Te Mātāwai,,,+6444998907,patai@tematawai.maori.nz,https://www.tematawai.maori.nz/,,2021-11-01,,139 Featherston Street,Wellington,6011,,,PO Box 844,Wellington,6140,,Statutory entities,
te-pukenga,Te Pūkenga,,0800862284,,info@tepukenga.ac.nz,https://xn--tepkenga-szb.ac.nz/,,2021-04-16,,Cnr Anglesea and Nisbet Streets,Hamilton,3204,,,"Level 1, Wintec House  Cnr Anglesea and Nisbet Street",Hamilton,3204,,Polytechnics/Institutes of technology,
te-puni-kokiri,Te Puni Kōkiri,Ministry of Māori Development-Te Puni Kōkiri,,+6448196000,info@tpk.govt.nz,http://www.tpk.govt.nz,http://www.tpk.govt.nz/en/whakapa-mai/,2020-10-22,,143 Lambton Quay,Wellington,6011,New Zealand,,PO Box 3943,Wellington,6140,New Zealand,Public Service,
te-taura-whiri-i-te-reo-maori-maori-language-comm,Te Taura Whiri i te Reo Māori,Māori Language Commission,,+6444710244,info@tetaurawhiri.govt.nz,http://www.tetaurawhiri.govt.nz/,https://www.tetaurawhiri.govt.nz/,2020-09-10,,10 Customhouse Quay,Wellington,6011,New Zealand,,PO Box 411  ,Wellington,6140,New Zealand,Autonomous crown entities,
te-tumu-paeroa,Te Tumu Paeroa,,0800943682,+6444744600,contact@tetumupaeroa.co.nz,https://www.tetumupaeroa.co.nz/,https://www.tetumupaeroa.co.nz/contact/,2020-08-17,,110  Featherston Street,Wellington,6011,New Zealand,,PO Box 5038,Wellington,6145,New Zealand,Other (bodies corporate),te-puni-kokiri
te-wananga-o-aotearoa,Te Wānanga o Aotearoa,,0800355553,+6478701087,sales@twoa.ac.nz,http://www.twoa.ac.nz/,http://www.twoa.ac.nz/Hononga-Stay-Connected/Contact-us,2020-09-10,,320 Factory Road,Te Awamutu,3840,New Zealand,,PO Box 151,Te Awamutu,3840,New Zealand,Wānanga,
te-wananga-o-raukawa,Te Wānanga o Raukawa,,08009262642,+6463649011,tetomonga@twor-otaki.ac.nz,http://www.wananga.com/,https://www.wananga.com/contact-us,2022-01-10,,144 Tasman Road,Otaki,5512,New Zealand,,PO Box 119,Otaki,5542,New Zealand,Wānanga,
te-whare-wananga-o-awanuiarangi,Te Whare Wānanga o Awanuiārangi,,0508926264,+6473063285,enquiries@wananga.ac.nz,http://www.wananga.ac.nz/,http://www.wananga.ac.nz/contact-us,2020-08-17,,13 Domain Road,Whakatane,,New Zealand,,Private Bag 1006,Whakatane,3158,New Zealand,Wānanga,
teaching-council-of-aotearoa-new-zealand,Teaching Council of Aotearoa New Zealand,,,+6444710852,enquiries@teachingcouncil.nz,https://teachingcouncil.nz/,https://teachingcouncil.nz/contact-us/,2021-01-14,,7 Waterloo Quay,Wellington,6011,New Zealand,,PO Box 5326,Wellington,6140,New Zealand,Statutory entities,
teachnz,TeachNZ,,0800165225,,teachnz.admin@education.govt.nz,http://www.teachnz.govt.nz,http://www.teachnz.govt.nz/contact-us,2016-10-31,,33 Bowen Street,Wellington,6011,New Zealand,,PO Box 1666,Wellington,6140,New Zealand,Public Service,ministry-of-education
telarc-limited,Telarc Limited,,0800004004,,info@telarc.co.nz,http://www.telarc.co.nz/,http://www.telarc.co.nz/contact/,2020-07-30,,626 Great South Road,Auckland,1051,New Zealand,,Private Bag 28901,Auckland,1541,New Zealand,Autonomous crown entities,accreditation-council
telecommunications,Telecommunication Dispute Resolution,,0508989898,+6449184900,contact@tdr.org.nz,http://www.tdr.org.nz/,http://www.tdr.org.nz/contact-us,2016-10-31,,109 Featherston Street,Wellington,6011,New Zealand,,Freepost 214075  PO Box 5573,Wellington,6145,New Zealand,,
television-new-zealand-limited,Television New Zealand Limited,Te Reo Tataki o Aotearoa,,+6499167000,,http://tvnz.co.nz/,http://tvnz.co.nz/tvnz-corporate-comms/feedback-form-4935039,2020-07-30,,100 Victoria Street West,Auckland,,New Zealand,,PO Box 3819,Auckland,1140,New Zealand,Other companies,
telford-rural-polytechnic,Telford Rural Polytechnic,Te Whare Wanaka O Puerua,0800835367,+6434190300,enquiry@telford.ac.nz,http://www.telford.ac.nz/,http://www.telford.ac.nz/Contact/,2020-07-30,,498  Owaka Highway,Otago,9271,New Zealand,,PO Box 6  ,Otago,9240,New Zealand,Universities,lincoln-university
tenancy-services,Tenancy Services,,0800836262,+6442384695,info@tenancy.govt.nz,http://www.tenancy.govt.nz/,http://www.tenancy.govt.nz/about-tenancy-services/contact-us/,2020-09-30,,15 Stout Street,Wellington,6011,New Zealand,,PO Box 50-546,Wellington,6143,New Zealand,Public Service,ministry-of-business-innovation-and-employment
tertiary-education-commission,Tertiary Education Commission,Te Amorangi Mātauranga Matua,0800601301,+6444625201,customerservice@tec.govt.nz,http://www.tec.govt.nz,http://www.tec.govt.nz/contact-us,2022-08-12,,44 The Terrace,Wellington,6011,New Zealand,,PO Box 27 048,Wellington,6141,New Zealand,Crown agents,
thames-coromandel-district-council,Thames-Coromandel District Council,,,+6478680200,customer.services@tcdc.govt.nz,http://www.tcdc.govt.nz/,http://www.tcdc.govt.nz/Your-Council/Contact-Us/,2022-10-11,,515 Mackay Street,Thames,3500,New Zealand,,Private Bag 1001,Thames,3540,New Zealand,District Council,
the-office-for-maori-crown-relations-te-arawhiti,The Office for Māori Crown Relations – Te Arawhiti,,,+6444949800,,http://www.tearawhiti.govt.nz,,2021-04-14,,19  Aitken Street,Wellington,6011,New Zealand,,DX SX10111,Wellington,,New Zealand,Public Service,
the-treasury,The Treasury,Te Tai Ōhanga,,+6444722733,info@treasury.govt.nz,http://www.treasury.govt.nz/,http://www.treasury.govt.nz/abouttreasury/contactus,2020-07-30,,1 The Terrace,Wellington,,New Zealand,,PO Box 3724,Wellington,6140,New Zealand,Public Service,
timaru-district-council,Timaru District Council,,,+6436877200,enquiry@timdc.govt.nz,http://www.timaru.govt.nz/,https://www.timaru.govt.nz/tell-us/contact-us,2020-06-10,,2 King George Place,Timaru,7910,New Zealand,,PO Box 522,Timaru,7940,New Zealand,District Council,
toi-ohomai-institute-of-technology,Toi Ohomai Institute of Technology,,0800864646,,info@toiohomai.ac.nz,https://toiohomai.ac.nz/,https://toiohomai.ac.nz/about/contact-us,2020-07-30,,Mokoia Drive,Rotorua,3015,New Zealand,,Private Bag 3028,Rotorua,3046,New Zealand,Polytechnics/Institutes of technology,
trading-standards,Trading Standards,,0508627774,,tradingstandards@mbie.govt.nz,https://www.tradingstandards.govt.nz/,,2021-10-13,,15 Stout Street,Wellington,6011,New Zealand,,PO Box 1473,Wellington,6140,New Zealand,Public Service,ministry-of-business-innovation-and-employment
transport-accident-investigation-commission,Transport Accident Investigation Commission,Te Kōmihana Tirotiro Aituā Waka,,+6444733112,info@taic.org.nz,http://www.taic.org.nz/,https://www.taic.org.nz/contact-us,2023-04-24,,10 Brandon Street,Wellington,6011,New Zealand,,PO Box 10323,Wellington,6140,New Zealand,Independent Crown entities,
transpower-new-zealand-limited,Transpower,,,+6444957000,,https://www.transpower.co.nz,https://www.transpower.co.nz/about-us/what-we-do/contact-us,2020-07-30,,96 The Terrace,Wellington,6011,New Zealand,,PO Box 1021,Wellington,6140,New Zealand,State-owned enterprises,
tupu-tonu-ngapuhi-investment-fund,Tupu Tonu — Ngāpuhi Investment Fund,,,098832040,info@tuputonuinvestments.co.nz,http://www.tuputonu.co.nz/,,2021-05-17,,,,,,,PO Box 507,Wellington,6140,,,
unitec-institute-of-technology,UNITEC Institute of Technology,Te Whare Wānanga o Wairaka,,+6498494180,study@unitec.ac.nz,http://www.unitec.ac.nz/,http://www.unitec.ac.nz/about-us/contact-us,2020-08-17,,Carrington Road,Auckland,,New Zealand,,Private Bag 92025,Auckland,1142,New Zealand,Polytechnics/Institutes of technology,
universal-college-of-learning,Universal College of Learning,Te Pāe Mātauranga Ki Te Ao,0800468265,+6469527000,enquiry@ucol.ac.nz,http://www.ucol.ac.nz/,http://www.ucol.ac.nz/contact-us,2020-07-30,,Corner of King and Princess Streets,Palmerston North,4442,New Zealand,,Private Bag 11022,Palmerston North,4442,New Zealand,Polytechnics/Institutes of technology,
universities-nz,Universities New Zealand (UNZ),Te Pōkai Tara,,+6443818500,contact@universitiesnz.ac.nz,https://www.universitiesnz.ac.nz/,https://www.universitiesnz.ac.nz/about-universities-new-zealand/contact-us,2022-11-15,,142 Lambton Quay,Wellington,6011,New Zealand,,PO Box 860,Wellington,6140,New Zealand,Universities,
university-of-auckland,The University of Auckland,Waipapa Taumata Rau,0800616263,+6493737999,studentinfo@auckland.ac.nz,http://www.auckland.ac.nz,https://www.auckland.ac.nz/en/about/the-university/uoa-contact-us.html,2020-07-30,,24 Princes Street,Auckland,1010,New Zealand,,Private Bag 92019,Auckland,1142,New Zealand,Universities,
university-of-canterbury,University of Canterbury,Te Whare Wānanga O Waitaha,,+6433667001,info@canterbury.ac.nz,http://www.canterbury.ac.nz/,https://www.canterbury.ac.nz/about/contacts/contact-search/,2022-01-10,,20  Kirkwood Ave,Christchurch,8041,New Zealand,,Private Bag 4800,Christchurch,8140,New Zealand,Universities,
university-of-otago,University of Otago,Te Whare Wananga o Otago,0800808098,+6434797000,university@otago.ac.nz,http://www.otago.ac.nz/,http://www.otago.ac.nz/contacts/,2022-07-26,,362 Leith Street,Dunedin,9016,New Zealand,,PO Box 56,Dunedin,9054,New Zealand,Universities,
university-of-waikato,University of Waikato,Te Whare Wananga o Waikato,0800924528,+6478562889,info@waikato.ac.nz,http://www.waikato.ac.nz/,http://www.waikato.ac.nz/contacts/,2020-07-30,,Knighton Road,Hamilton,3216,New Zealand,,Private Bag 3105,Hamilton,3240,New Zealand,Universities,
upper-hutt-city-council,Upper Hutt City Council,,,+6445272169,askus@uhcc.govt.nz,http://www.upperhuttcity.com/,https://www.upperhuttcity.com/Contact-us,2020-06-15,,838 - 842 Fergusson Drive,Upper Hutt,5018,New Zealand,,Private Bag 907,Upper Hutt,5140,New Zealand,City Council,
valuers-registration-board,Valuers Registration Board,,0800665463,+6444600110,customersupport@linz.govt.nz,http://www.linz.govt.nz/valuation/valuers-registration-board/index.aspx,,2016-10-31,,,,,,,PO Box 5501,Wellington,6145,New Zealand,Public Service,land-information-new-zealand
veterans-affairs-new-zealand,Veterans’ Affairs New Zealand,Te Tira Ahu Ika A Whiro,08004838372,+6444952070,veterans@nzdf.mil.nz,https://www.veteransaffairs.mil.nz,https://www.veteransaffairs.mil.nz/contact-us/,2019-08-05,,,,,,,PO Box 5146,Wellington,6140,,Non-Public Service departments,new-zealand-defence-force
victoria-university-of-wellington,Victoria University of Wellington,Te Whare Wānanga o te Ūpoko o te Ika a Māui,,+6444721000,info@victoria.ac.nz,http://www.victoria.ac.nz,http://www.victoria.ac.nz/home/contact,2020-07-30,,Kelburn Parade,Wellington,6012,New Zealand,,PO Box 600,Wellington,6140,New Zealand,Universities,
waikato-district-council,Waikato District Council,,0800492452,+6478248633,info@waidc.govt.nz,http://www.waikatodistrict.govt.nz/,https://www.waikatodistrict.govt.nz/contact-us,2022-10-14,,15 Galileo Street,Ngaruawahia,3720,New Zealand,,Private Bag 544,Ngaruawahia,3720,New Zealand,District Council,
waikato-institute-of-technology,Waikato Institute of Technology,Te Kuratini o Waikato,08002946832,+6478386399,info@wintec.ac.nz,http://www.wintec.ac.nz/,http://www.wintec.ac.nz/about/Pages/contact-us.aspx,2020-07-30,,Tristam Street,Hamilton,3240,New Zealand,,Private Bag 3036,Hamilton,3240,New Zealand,Polytechnics/Institutes of technology,
waikato-regional-council,Waikato Regional Council,Te Kaunihera ā Rohe o Waikato,0800800401,+6478590999,info@waikatoregion.govt.nz,http://www.waikatoregion.govt.nz/,https://www.waikatoregion.govt.nz/council/contact-us/,2022-10-07,,160 Ward Street,Hamilton,3204,New Zealand,,Private Bag 3038,Hamilton,3240,New Zealand,Regional Council,
waimakariri-district-council,Waimakariri District Council,,0800965468,+6433118900,office@wmk.govt.nz,http://www.waimakariri.govt.nz/,https://www.waimakariri.govt.nz/your-council/contact-us,2022-10-11,,215 High Street,Rangiora,7400,New Zealand,,Private bag 1005,Rangiora,7440,New Zealand,District Council,
waimate-district-council,Waimate District Council,,,+6436890000,council@waimatedc.govt.nz,http://www.waimatedc.govt.nz/,https://www.waimatedc.govt.nz/council/contact-us/?ed-step=1,2022-10-14,,125 Queen Street,Waimate,7924,New Zealand,,PO Box 122,Waimate,7960,New Zealand,District Council,
waipa-district-council,Waipā District Council,,0800924723,+6478720030,info@waipadc.govt.nz,http://www.waipadc.govt.nz/,https://www.waipadc.govt.nz/contact-us,2022-10-17,,101 Bank Street,Te Awamutu,3800,New Zealand,,Private Bag 2402,Te Awamutu,3840,New Zealand,District Council,
wairoa-district-council,Wairoa District Council,,,+6468387309,administrator@wairoadc.govt.nz,http://www.wairoadc.govt.nz/,http://www.wairoadc.govt.nz/our-council/about/contact-us/,2022-10-11,,97-103  Queen Street,Hawke's Bay,4108,New Zealand,,PO Box 54,Hawke's Bay,4160,New Zealand,District Council,
waitaki-district-council,Waitaki District Council,,0800108081,+6434330300,service@waitaki.govt.nz,http://www.waitaki.govt.nz,http://www.waitaki.govt.nz/our-council/council-offices-and-contacts/Pages/default.aspx,2022-10-11,,20 Thames Street,Oamaru,9400,New Zealand,,Private Bag 50058,Oamaru,9444,New Zealand,District Council,
waitangi-tribunal,Waitangi Tribunal,,,+6449143000,WaitangiTribunal@justice.govt.nz,https://www.waitangitribunal.govt.nz/,https://www.waitangitribunal.govt.nz/contact-us/,2020-06-15,,141  The Terrace,Wellington,,New Zealand,,DX SX 11237,Wellington,,New Zealand,Public Service,
waitomo-district-council,Waitomo District Council,,08009324357,+6478780800,info@waitomo.govt.nz,http://www.waitomo.govt.nz/,https://www.waitomo.govt.nz/contact/,2022-10-11,,Queen Street,Te Kuiti,3941,New Zealand,,PO Box 404,Te Kuiti,3941,New Zealand,District Council,
wellington-city-council,Wellington City Council,Te Kaunihera o Pōneke,,+6444994444,info@wcc.govt.nz,http://www.wellington.govt.nz/,https://wellington.govt.nz/contact-us/contact-details,2024-10-23,,113 The Terrace,Wellington Central,6011,New Zealand,,PO Box 2199,Wellington,6140,New Zealand,City Council,
wellington-fish-and-game-council,Wellington Fish and Game Council,,,+6463590409,wellington@fishandgame.org.nz,https://fishandgame.org.nz/wellington/,https://fishandgame.org.nz/wellington,2020-07-30,,292 Featherston Street,Palmerston North,4410,New Zealand,,PO Box 1325,Palmerston North,4440,New Zealand,Regional,new-zealand-fish-and-game-council
weltec,WelTec,Te Whare Wananga o te Awakairangi,0800935832,+6449202400,information@weltec.ac.nz,http://www.weltec.ac.nz/,https://www.whitireiaweltec.ac.nz/about-us/contact-information/,2022-01-10,,21 Kensington Avenue,Lower Hutt,,New Zealand,,Private Bag 39803,Lower Hutt,5045,New Zealand,Polytechnics/Institutes of technology,
west-coast-fish-and-game-council,West Coast Fish and Game Council,,,+6437558546,westcoast@fishandgame.org.nz,https://fishandgame.org.nz/westcoast/,https://fishandgame.org.nz/westcoast,2020-07-30,,Airport Drive,Hokitika,7810,New Zealand,,PO Box 179,Hokitika,7842,New Zealand,Regional,new-zealand-fish-and-game-council
west-coast-regional-council,West Coast Regional Council,,0508800118,+6437680466,info@wcrc.govt.nz,http://www.wcrc.govt.nz/,https://www.wcrc.govt.nz/council/contact-us/?ed-step=1,2022-10-07,,388 Main South Road,Greymouth,7805,New Zealand,,PO Box 66,Greymouth,7840,New Zealand,Regional Council,
western-bay-of-plenty-district-council,Western Bay of Plenty District Council,,0800926732,+6475718008,customerservice@westernbay.govt.nz,http://www.westernbay.govt.nz/,https://www.westernbay.govt.nz/council/contact-us,2022-10-12,,1484 Cameron Road,Tauranga,,New Zealand,,Private Bag 12803  Tauranga Mail Centre,Tauranga,3143,New Zealand,District Council,
western-institute-of-technology-at-taranaki,Western Institute of Technology (Taranaki),Te Kura Matatini o Taranaki,0800948896,+6467573100,info@witt.ac.nz,http://www.witt.ac.nz/,http://www.witt.ac.nz/Contact/,2020-08-17,,20 Bell Street,New Plymouth,4342,New Zealand,,Private Bag 2030,New Plymouth,4342,New Zealand,Polytechnics/Institutes of technology,
westland-district-council,Westland District Council,,0800474834,+6437569010,council@westlanddc.govt.nz,http://www.westlanddc.govt.nz/,https://www.westlanddc.govt.nz/contact-us/,2022-10-12,,36 Weld Street,Hokitika,7810,New Zealand,,Private Bag 704,Hokitika,7842,New Zealand,District Council,
whaikaha-ministry-of-disabled-people,Whaikaha,Ministry of Disabled People,0800566601,,contact@whaikaha.govt.nz,https://www.whaikaha.govt.nz/,https://www.whaikaha.govt.nz/contact-us/,2024-11-07,,56 The Terrace,Wellington,6011,,,Reply Paid: 262204,Wellington,6140,,Public Sector,
whakarongorau-aotearoa,Whakarongorau Aotearoa,New Zealand Telehealth Services,,+649354774,feedback@whakarongorau.nz,https://whakarongorau.nz/,https://whakarongorau.nz/contact,2024-11-13,,,,,,,PO Box 9980,Auckland,1149,,,
whakatane-district-council,Whakatāne District Council,,,+6473060500,info@whakatane.govt.nz,http://www.whakatane.govt.nz/,http://www.whakatane.govt.nz/Contact-Us/,2020-06-09,,14 Commerce Street,Whakatāne,,New Zealand,,Private Bag 1002,Whakatāne,3158,New Zealand,District Council,
whanganui-district-council,Whanganui District Council,,,+6463490001,yourcouncil@whanganui.govt.nz,https://www.whanganui.govt.nz/Home,https://www.whanganui.govt.nz/Your-Council/About-Whanganui-District-Council/Contact-Us,2022-10-17,,101  Guyton Street,Whanganui,5015,New Zealand,,PO Box 637,Whanganui,4540,New Zealand,District Council,
whangarei-district-council,Whangarei District Council,,0800932463,+6494304200,mailroom@wdc.govt.nz,http://www.wdc.govt.nz/,https://www.wdc.govt.nz/Council/Contact-us,2022-10-17,,7 Rust Avenue,Whangarei,0110,New Zealand,,Private Bag 9023,Whangarei,0148,New Zealand,District Council,
whitireia-community-polytechnic,Whitireia Community Polytechnic,Te Kura Matatini o Whitireia,0800944847,+6442373100,international@whitireia.ac.nz,http://www.whitireia.ac.nz,https://www.whitireiaweltec.ac.nz/about-us/contact-information/,2022-01-10,,3 Wineera Drive,Porirua,5022,New Zealand,,Private Bag 50910,Porirua,5240,New Zealand,Polytechnics/Institutes of technology,
work-and-income,Work and Income,Te Hiranga Tangata,,,,http://www.workandincome.govt.nz,http://www.workandincome.govt.nz/about-work-and-income/contact-us/index.html,2025-03-10,,56 The Terrace,Wellington,6011,New Zealand,,,,,,Public Service,ministry-of-social-development
worksafe-new-zealand,WorkSafe New Zealand,Mahi Haumaru Aotearoa,0800030040,,info@worksafe.govt.nz,https://www.worksafe.govt.nz/,https://www.worksafe.govt.nz/contact-us/,2020-07-30,,8 Willis Street,Wellington,6011,New Zealand,,PO Box 165,Wellington,6140,New Zealand,Crown agents,
youth-court,Youth Court,,,,,https://www.youthcourt.govt.nz/home-2/,https://www.justice.govt.nz/contact-us/find-us,2025-01-23,,,,,,,,,,,Public Service,district-courts
